Centre address	No_Street	StreetName	Suburb	ID
				910
"B4 Century Square 
Heron Crescnt 
Century C 
7441"		Heron Crescent	Century City	4
"19A Oewerpark, Rokewood Avenue
Stellenbosc 
7613"		Rokewood Avenue	Stellenbosch	60
				85
Cape Town, Paarl, Stellenbosch, Worcester			Paarl	123
99 Stadium on Main Road Claremont, 2nd Floor		Main Road	Claremont	160
"53 Main Rd,
Vredenbug, 
7380"	53	Main Rd	Vredenburg	161
Roodebloem Office Park 20 Bella Road Rosenpark Bellville 7530	20	Bella Road	Rosenpark	184
"Triangle House, 13th Floor
22 Riebeek Street
Cape To 8001"	22	"
Riebeek Street"	Cape Town	186
 First Floor, SAB&T House, Cnr Birmingham & Canterbury Road, N1 City, Goodwood, 7460	Cnr	Birmingham & Canterbury Road	N1 City	189
13 Blankenberg Street, Belle Cape Building, Bellville,7530	13	Blankenberg Street	Belle Cape Building	203
22 Church Street, Durbanville, 7550	22	Church Street	Durbanville	209
"Old Oak Office Park
C/O Old Oak & Durban Roa d
Bellville, 7530"	Cnr	Old Oak & Durban Road	Bellville	291
"13 Octofin House
Fairways Office Park
Somerset West, 7130"			Somerset West	305
25 Saint James Street, Audas Estate, Somerset West, 7130	25	Saint James Street	Audas Estate	361
Office 102, Libri Business Centre, Libri Lane, Somerset West, 7130		Libri Lane	Somerset West	482
1 Niblick Way, Firgrove Rural, Somerset West, 7130	1	Niblick Way	Firgrove Rural	497
3 Kariga Street, Stikland Industrial, Bellville, 7530	3	Kariga Street	Stikland Industrial	511
Office D8, Block D				514
FARM SONWEELDEROUTE 45 NORTHERN PAARL 7620	45		NORTHERN PAARL	539
1st Floor Market Mall, 84 Market Street, George, Western Cape, South Africa	84	Market Street	George	544
Ground Floor Twin Oaks Centre, 142 Main Road, Somerset West	142	Main Road	Somerset West	545
1st Floor Regkam Building Kort Street (Cnr Voortrekker Road), Bellville, Western Cape, South Africa	Cnr	Kort Street & Voortrekker Road	Bellville	546
"5th Floor, The Strand
37 Strand Street
Cape Town
Western Cape, 8000"	37	Strand Street	Cape Town	562
5 Mountain View Crescent, Durbell, Durbanville, 7550	5	Mountain View Crescent	Durbell	567
47 - ON -Strans, Strand Street Cape Town	47	Strand Street	Strand Street Cape Town	588
				617
"64 Bree Street
Bree Castle House Unit 20 4
2nd Floor
Cape Town 8000"	64	Bree Street	Cape Town	651
Foreshore, Cape Town		Foreshore	Cape Town	657
12 Liesbeek Parkway Mowbray	12	Liesbeek Parkway	Mowbray	670
"64 St George's Mall
Cape Town
8001"	64	St George's Mall	Cape Town	675
45 Sir Lowry Road, Woodstock, 7925	45	Sir Lowry Road	Woodstock	687
"	10 VAN DER LINGEN STREET, PAARL, WESTERN CAPE, ZA"	10	VAN DER LINGEN STREET	PAARL	696
2 Canal Side, Heron Crescent, Century City, Cape Town		Heron Crescent	Century City	730
CARPE DIEM BUILDING, BLOCK A, TECHNO PARK, QUANTUM STREET, STELLENBOSCH, WESTERN CAPE, ZA,		QUANTUM STREET	STELLENBOSCH	763
5 Wylant St, Door De Kraal, Bellville, Western Cape, South Africa	5	Wylant St	Door De Kraal	844
80 Panorama Road, Panorama, Parow, 7500	80	Panorama Road	Panorama	866
"Varsity Place, Belmont Office Park,
Belmont Road, Rondebosch 7700"		Belmont Road	Rondebosch	878
"67 Rosmead Av, Kenilworth
Claremont (Western Cape)"		Rosmead Avenue	Kenilworth	901
				911
"Table View Campus
Bayside Office Park,
41-43 Erica Road,
Table V 
7441"	41	Erica Road	Table View	982
"De Waterkant
10 Helderberg Street
Stellenbosch"	10	Helderberg Street	Stellenbosch	999
"DIE TREK STREET 
Piketberg, Western Cape"		DIE TREK STREET	Piketberg	1024
1 Long Street, Cape Town City Centre, Cape Town, 8001	1	Long Street	Cape Town	1037
"3rd & 4th Floor, The Gateway,
Century Way, Century Cit  7441"		"
Century Way"	Century City	1057
14 Stockenstrom Street Worcester, 6850, South Africa	14	Stockenstrom Street	Worcester	1088
19 Hawk Cres Table View, Western Cape, 7441 South Africa	19	Hawk Cres 	Table View	49
60 Ring Rd Industria		Ring Road 	Parow Industria	84
	3	Main Rd 	Newlands	190
	11	Fabriek St	Malmesbury	201
GOVERNMENT JETTY FISHING HARBOUR		Searle Street   	Woodstock	210
Lanzerac Road Phillipi, Industria		Cnr of Lanzerac & Stock Roads  	Phillipi Industria 2	214
12 Dahlia Street White City	12	Dahlia Street 	White City	227
7 Warrington Street Claremont	7	Warrington Street	 Claremont	289
32 Benbow Avenue Epping Industria	32	Benbow Avenue 	Epping Industria	297
2 Thorpe Close Corner Thorpe Close/Zwaanswyk Road, entrance in Zwaanswyk Road	2	Corner Thorpe Close/Zwaanswyk Road	Tokai	360
13 Wittebomen Road Constantia	13	Wittebomen Road 	Constantia	452
BREE STREET 169A CAPE TOWN		BREE STREET 	Cape Town	484
APPLETISER ROAD GRABOUW		APPLETISER ROAD	 GRABOUW	489
	5	Morningside Rd  	Ndabeni	559
8 WATTLE ROAD TYGERBERG	8	WATTLE ROAD 	TYGERBERG	561
	9	PARIN ROAD   	INDUSTRIA	609
5 Kehrweider St Saxon Sea	5	Kehrweider St 	Saxon Sea	610
16 Dwyka Street Stikland	16	Dwyka Street 	Stikland	658
2 Cochrane Avenue Eppindust	2	Cochrane Avenue 	Eppindust	667
Libertas Building Adam Tas Street		Adam Tas Street	Stellenbosch	712
17 Fisher Avenue Eppinndust	17	Fisher Avenue 	Eppinndust	721
17 Stuiwer Street Vierlanden, Durbanville  7550  	17	Stuiwer Street 	Vierlanden	790
1 CNR VOORTREKKER & 11TH AV MAITLAND	1	CNR VOORTREKKER & 11TH AV 	 Maitland	800
786 Main Road Hoedjiesbaai Centre	786	Main Road Hoedjiesbaai Centre	Saldanha	849
West Caost Business Centre Tornyn Strteet		Tornyn Street	Saldanha	902
				912
34 Lady Grey Street Paarl	34	Lady Grey Street 	Paarl	963
POSBUS 528 WESTERN CAPE		Main St	Paarl	976
SCHOONGESICHT LAAN LADISMITH		SCHOONGESICHT LAAN 	LADISMITH 	978
RIVER STREET LAAIPLEK		RIVER STREET	 LAAIPLEK	1011
	19	 Section Street	Paarden Eiland	39
	5	 Lynx Road	 Paarden Island	65
	22	Oosterland Street Dal Josafat	PAARL	69
	10	Freedom Drive Marconi Beam	Montague Gardens	73
		Freedom Way	Marconi Beam Milnerton	75
	15	Jan Van Riebeeck Drive	Paarl	76
	22	Osterland Street Dal Josafat	PAARL	78
	8	Jan Van Riebeeck Road	Paarl	80
	36	 Old Mill Road	N'dabeni	108
		Mail Street Western Province Park	EPPING	113
	10	Station Road	Kuilsrivier	116
	43	 Mansell Avenue	Killarney Gardens	129
	36	Thor Circle Viking Place	THORNTON	176
	14	Cnr Caxton & Duminy Street	Parow	188
		 Baron Street	Cape Town	206
		Moorsom Avenue	Epping Industria 11	216
	5	 Koets Street Tygerberg Bus Park	PAROW	220
		Private Bag x1	Goodwood	252
	11	  Techno Crescent Western Province Park	EPPINDUST	307
		Old Marine Drive	Cape Town	323
	16	 Strawberry Mall	Strandfontein	325
	58	 Kinghall Avenue	Epping 2	342
		Thor Circle 	Thornton	357
		 Michelle Close	GOODWOOD	570
	118	 Bofors Circle	Epping	605
	382	Voortrekker Road	Goodwood	636
		Eliot Avenue	Epping Industria	656
		Cnr Caxton & Duminy Street	Parow	660
		Cnr Caxton & Duminy Street	PAROW	663
		Van der Stel Street	Daljosafat PAARL	714
	24	 Kinghall Avenue	Eppindust	795
	7	 Ravenscraig Road	Woodstock	875
		Cnr Drukkery & Malherbe Street	Goodwood	879
	122	 St George's Mall	CAPE TOWN	881
				913
	32	 Osborne Street	Woodstock	984
	2	Bofors Circle	Epping Industria 2	995
		Cnr 11th Avenue & Numan Street	Kensington	1041
	14	 Fabriek Street	Kuilsriver	1053
		Cnr Drukkery And Malherbe Street	Goodwood	1054
	44	 Third Street 	Walvis Bay Namibia	1055
		Dacres Avenue	Epping	1068
		Cnr Hewitt Avenue & Bofors Circle	Epping	1071
	4	 Bayete Street	NDABENI	1074
		Drukkerystraat	Goodwood	1078
Aan-de-Wagen Road Stellenbosch 7600		Aan-de-Wagen Road Stellenbosch 7600	Stellenbosch	103
22 AKASIA STRAAT GEORGE 6529	22	AKASIA STRAAT 	GEORGE 	336
Main Road Muizenburg 7950		Main Road	 Muizenburg 	637
18 ALLEN DRIVE LOEVENSTEIN BELLVILLE 7530	18	ALLEN DRIVE  	LOEVENSTEIN	816
Unit 11A Lonsdale Way Pinelands 7405		Lonsdale Way 	Pinelands	860
				863
				914
9 220 OTTERY ROAD CAPE TOWN 7800	220	OTTERY ROAD 	Wynberg	1064
20 BELLA ROSA STREET CAPE TOWN 7530	20	BELLA ROSA STREET 	Rosenpark	1077
				37
				198
Unit 10 Petrusa Park, Petrusa Street, Bellville, 7530		Petrusa Street	Bellville	469
Unit 1, 4 Nina Street, Brackenfell, 7560	4	Nina Street	Brackenfell	473
12 Liesbeek Parkway Mowbray	12	Liesbeek Parkway	Mowbray	677
"	20 MARGARET STREET, GAYLEE, BLACKHEATH, 7580"	20	MARGARET STREET	GAYLEE	697
				915
"2nd Floor Sunclare Building 
Cnr Protea & Dreyer Rds
Claremont
Cape Town
7708"		Protea Rd & Dreyer Rd	Claremont	1043
2nd floor Stadium on Main 99 Main Rd Claremont	99	Main Rd 	Claremont	159
SAADA House, 27 Rabe  Street, Polokwane 0699      015 295 9670/ 015 291 4998	27	Rabe	Polokwane	249
100 Northern Parkway  2nd Floor - Block D  Crownwood Officepark  Ormonde - Johannesburg		100 Northern Parkway  2nd Floor - Block D  Crownwood Officepark  Ormonde - Johannesburg		329
31 The Sanctuary, Kirstenhof, 7945	31	The Sanctuary	 Kirstenhof	383
2 Yellowwood Street, Alveda Park Extension 2, Johannesburg, 2091		2 Yellowwood Street	 Alveda Park Extension 2	501
Development Bank of Southern Africa  Headway Hill  1258 Lever Rd Midrand		Development Bank of Southern Africa  Headway Hill  1258 Lever Rd Midrand		701
Development Bank of Southern Africa  Headway Hill  1258 Lever Rd Midrand		Development Bank of Southern Africa  Headway Hill  1258 Lever Rd Midrand		702
				916
				942
WC EC ETC		WC EC ETC		943
				944
				946
WC EC ETC		WC EC ETC		947
First floor Stadium on Main 99 Main Rd Claremont	99	 Main Rd	 Claremont	1009
195 Umhlanga Rocks Drive Durban North		195 Umhlanga Rocks Drive Durban North		1025
275 Victoria Road, Salt River, Cape Town	275	Victoria Road	 Salt River	1048
261 Main Road, STRAND, 7140	261	Main Road	 STRAND	1
Business Centre - Saldanha Site, Yzervarkruggens, SALDANHA, 7395		 Saldanha Site	Yzervarkruggens	2
Electron Ave, Isando, Gauteng, 1600		Electron Ave	Isando	3
282 Durban Road, Oakdale, TYGERVALLEY, 7530	282	 Durban Road	Oakdale	12
Unit 27 Gunners Park, Gunners Circle, EPPING 1, 7960		Gunngers Circle 	Epping 1	31
32 Westhoven Street, PAARL, 7646	32	Westhoven Street	 PAARL	42
Arbeid Street, BEAUFORT WEST, 6970		Arbeid Street	BEAUFORT WEST	52
The Waverley - Unit 23A, Koetzee Road, Mowbray, CAPE TOWN, 7700		 Koetzee Road	Mowbray 	54
Arbeid Street, BEAUFORT WEST, 6970		Arbeid Street	BEAUFORT WEST	62
Isotope Street, Stikland, Bellville		Isotope Street	Stikland	71
3 Marconi Road, Unit 1 - Montigo Park, MONTAGUE GARDENS, 7441	3	Marconi Road	Montague Gardens	81
Cnr Eisleben & Sheffield Streets, Philippi East, CAPE TOWN, 7785		Cnr Eisleben & Sheffield Streets	Philippi East	88
Atomic Street, Triangle Farms, BELLVILLE, 7530		Atomic Street	Bellville	89
	7	Gertrude Street	Goodwood 	106
Renier Street, WORCESTER, 6850		Renier Street	WORCESTER	115
22 Field Street, Industria, WORCESTER, 6850	22	Field Street	Industria	120
119 Sheard Street, Worcester	119	Sheard Street	WORCESTER	127
New Cross Street, CALEDON, 7320		New Cross Street	CALEDON	135
15 Sydow Street, MAITLAND, 7405	15	Sydow Street	Maitland	144
Unit 4 - 5, Evans Avenue, EPPING I		 Evans Avenue	Epping 1	149
9 Benbow Ave, EPPING INDUSTRIA, 7460	9	Benbow Ave	Epping Industria	151
	48	Canterbury Street	Cape Town 	174
35 section street Paarden Eiland,, Cape Town	35	Section Street	Paarden Eiland	180
112 Voortrekker Street, CERES	112	 Voortrekker Street	 CERES	196
423A Main Road, OBSERVATORY, 7925	423A	Main Road	Observatory 	204
423A Main Road, OBSERVATORY, 7925	423A	Main Road	Observatory	212
		Buitenkant Street, 	Cape Town City Centre	228
	334	Albert Road	Salt River	238
		Cnr of Cedar and Poplar Rds	 Thornton	247
		Duncan Road  	Cape Town Harbour 	259
8 Stoffel Smit Street, STELLENBOSCH, 7599	8	Stoffel Smit Street	 STELLENBOSCH	279
	10	Wallflower St	Paarden Eiland	282
		Thermo Street	Stikland	288
Straat kerk, Tulbagh		Straat kerk	TULBAGH	301
			VREDENBERG 	309
129 Sacks Circle, Bellville South, Cape Town, 7535	129	 Sacks Circle	Bellville South	316
1 Bree Street, CAPE TOWN	1	Bree Street	Cape Town 	317
Ocean Rd, Sturrock Dock, Table Bay, CAPE TOWN, 8000		Ocean Rd, Sturrock Dock	Table Bay	326
Ocean Rd, Sturrock Dock, Table Bay, CAPE TOWN, 8000		Ocean Rd, Sturrock Dock	Table Bay	334
Addy Street, Wellington, 7655		Addy Street	WELLINGTON	341
Elliot Avenue, Epping, CAPE TOWN, 8001		Elliot Avenue	Epping	350
7 Monza Rd,, Killarney Gardens,, Milnerton,, 7441	7	Monza Rd	Killarney Gardens	368
		Sacks Circle	Bellville	382
15 Voortrekker Street, SPRINGBOK, 8240	15	Voortrekker Street	SPRINGBOK	401
18 Arum St, Hermanus, 7200	18	Arum St	HERMANUS	402
11D Danie Uys Street, Stikland, CAPE TOWN, 7530	11D	Danie Uys Street	Stikland	403
21 Transvaal Street, PAARDEN EILAND, 7405	21	 Transvaal Street	Paarden Eiland	404
				405
130 Jan Van Riebeeck Road, Huguenot, PAARL, 7646	130	Jan Van Riebeeck Road	Huguenot	406
Mew Way, Khayelitsha		Mew Way	Khayelitsha	407
	83	Strand Street	Stikland	408
66 Old Mill Road, N'Dabeni, PINELANDS, 7405	66	 Old Mill Road	Ndabeni	409
378 Voortrekker Road, Goodwood, CAPE TOWN, 8001	378	Voortrekker Road	Goodwood	410
76 White Road, Retreat, Cape Town, 7945	76	 White Road	Retreat	411
103 Bofors Circle, Epping Industria	103	Bofors Circle	Epping Industria	412
187 Langenhoven Road, OUDTSHOORN, 6620	187	Langenhoven Road	OUDTSHOORN	413
15 Mynhardt Street, Gants Centre, STRAND, 7140	15	Mynhardt Street	STRAND	414
460 Chris Hani Road, Briardene, DURBAN, 4000	460	 Chris Hani Road	Briardene	415
Blackheath Small Business Centre, Station Road, Blackheath, CAPE TOWN, 7581		 Station Road	Blackheath 	416
Cnr Montague Drive & Freedom Way, Montague Gardens, CAPE TOWN, 7444		Cnr Montague Drive & Freedom Way	Montague Gardens	417
Cnr Koeberg Road & Bosmansdam Road, MILNERTON		Cnr Koeberg Road & Bosmansdam Road	Milnerton	418
Giel Basson Road, N1 City, GOODWOOD		Giel Basson Road	Goodwood 	419
38 Textile Street, PAARL	38	Textile Street	PAARL	420
35 Lady Grey Street, Paarl, 7646	35	 Lady Grey Street	PAARL	421
				422
14 Boulevard Park, BELLVILLE, 7530	14	Boulevard Park	Bellville	423
Observatory Road, OBSERVATORY, 7945		Observatory Road	Observatory 	424
Cnr Courtenay & Cradock Streets, Tommy Joubert Building (South), GEORGE, 6530		Cnr Courtenay & Cradock Streets	GEORGE	425
4 Koper Street, SPRINGBOK,8420	4	Koper Street	SPRINGBOK	426
				427
22 Dacres Avenue, EPPING II	22	Dacres Avenue	Epping II	428
27 Tredoux Street, Beaconvale, PAROW	27	Tredoux Street	Beaconvale	429
11 Lily Road, Retreat Industrial, 7945	11	Lily Road	Retreat Industrial	430
Steelbank Complex, 6 Reuban Kaye Road, Parow Industria, Cape Town, 7500	6	 Reuban Kaye Road	Parow Industria	431
9 Appletiser Road , Elgin , 7180	9	Appletiser Road 	Elgin 	432
11 Celie Road, RETREAT INDUSTRIA, 7945	11	Celie Road	Retreat Industria	433
1A Station Road, Montague Gardens, CAPE TOWN, 7741	1A	Station Road	Montague Gardens	434
11 Wellington Road, Parktown, Johannesburg, 2193	11	Wellington Road	Parktown	435
1A Station Road, Montague Gardens, CAPE TOWN, 7741	1A	Station Road	Montague Gardens	436
128 Rocklands Road, ROOIELS	128	Rocklands Road	ROOIELS	437
Oosterland Street, Daljosafat, PAARL, 7646		Oosterland Street	Daljosafat	438
				439
11 JACK STREET, GOODWOOD, 7460	11	Jack Street	Goodwood	440
Hoerskool Road, VREDENDAL NORTH, 8160		Hoerskool Road	Vredendal North	441
1 Academy Street, VREDENBURG, 7380	1	Academy Street	VREDENBURG	442
			ATLANTIS	443
8A Lily Road, RETREAT, 7945	8A	Lily Road	Retreat	444
23 Wellington Road, Durbanville, CAPE TOWN	23	Wellington Road	Durbanville	445
2 Ferguson Street, Triangle Farm, Stikland, BELLVILLE	2	Ferguson Street	Stikland	446
20 Krone Street, Worcester Industria, WORCESTER	20	 Krone Street	Worcester Industria	447
9 Tennant Street, STELLENBOSCH	9	Tennant Street	STELLENBOSCH	448
130 Victoria Road, Woodstock, CAPE TOWN, 7925	130	Victoria Road	Woodstock	449
Maitland 			Maitland	450
John Vani Niekerk Street, Atlantis		John Vani Niekerk Street	ATLANTIS	451
12 Kanarie Road, LANSDOWNE, 7780	12	Kanarie Road	Lansdowne	455
9 Boland Street, Daljosaphat, PAARL, 7646	9	Boland Street	Daljosaphat	462
8 Melborn Road, Woodstock, CAPE TOWN, 8000	8	Melborn Road	Woodstock	471
Cnr Voortrekker Road & 3rd Avenue, Maitland, CAPE TOWN		Cnr Voortrekker Road & 3rd Avenue	Maitland	479
24 Kariga Street, STIKLAND	24	Kariga Street	Stikland	485
59 College Road, Rylands, Athlone	59	College Road	Rylands	488
6 Milan Street, Airport Industria, CAPE TOWN	6	Milan Street	Airport Industria	503
Modderdam Road, BELLVILLE SOUTH		Modderdam Road	Bellville South	510
786 Main Road Hoedjiesbaai Centre, Saldanha, , Western Cape 7395	786	Main Road 	 SALDANHA	517
55 AUCKLAND ST, MAITLAND.	55	55 Auckland Street	Maitland	518
Unit 8 - 9B, Barlinka Road, Saxenberg Business Park		Barlinka Road	Blackheath 	526
Duncan Road (Next to Royal Yacht Club), Table Bay Harbour, CAPE TOWN, 7420		Duncan Road (Next to Royal Yacht Club)	Table Bay Harbour	550
	18	Rose Ave	Kirstenhof	558
217 Main Road, Tokai, CAPE TOWN, 7945	217	Main Road	Tokai	574
Denel Site, 100 Swartklip Road, MITCHELLS PLAIN, 7785	100	 Swartklip Road	Mitchells Plain 	590
27C Estmil Road, DIEP RIVER	27C	Estmil Road	Diep River	597
2 Gunners Circle, Epping, CAPE TOWN, 7460	2	Gunners Circle	Epping	606
Erf 585 - Old Faure Road, Faure, SOMERSET WEST, 7131	Erf 585	Old Faure Road	Faure	614
		Jan Smuts Drive	Pinelands	618
				622
9 - 4th Street, Montague Gardens, CAPE TOWN	9	4th Street	Montague Gardens	633
Jef Masemola Road, Greenpoint , Khayelitsha, 7784 		Jef Masemola Road	Khayelitsha	640
Jef Masemola Road, Greenpoint , Khayelitsha, 7784 		Jef Masemola Road	Khayelitsha	646
80 Voortrekker Road, BELLVILLE, 7530	80	Voortrekker Road	Bellville	653
80 Voortrekker Road, BELLVILLE, 7530	80	Voortrekker Road	Bellville	662
	8	Darling Street 	Cape Town	678
Verolme Kamp Street, SALDANHA, 7395		Verolme Kamp Street	SALDANHA	681
		River Park	Mowbray 	682
		Bella Rosa Street 	Rosenpark 	693
1st Floor, Block D, Belvedere Office Park,, Rosen Park, Cape Town		Bella Rosa Street 	Rosenpark 	700
99C Bofors Circle, EPPING, 7460	99C	99C Bofors Circle	Epping	707
6 MCGREGOR ST, BEACONVALE, PAROW,7500	6	McGregor Street	Beaconvale	731
Address: 73 Steward Street, Goodwood	73	 Steward Street	Goodwood	740
				750
Montreal Drive, AIRPORT INDUSTRIA, 7525		Montreal Drive	Airport Industria	756
Cnr Mill & Langewegger Street, STRAND, 7140		Cnr Mill & Langewegger Street	Strand	762
Westlake Drive, Westlake, TOKAI, 7966		Westlake Drive	Westlake	774
		Voortrekker Road 	Maitland	777
3rd Floor, Waterford House, Waterford Road, 7801		Waterford Road 		791
Clay Street, GEORGE, 6529		Clay Street	 GEORGE	799
100 Bird Street, STELLENBOSCH, 7600	100	Bird Street	 STELLENBOSCH	806
Saldanha Steel Site, SALDANHA		Saldanha Steel Site	 SALDANHA	819
		Floryn Street	Marais Industrial	826
Berty Ave, EPPING 2, 7475		Berty Ave	Epping 2	834
11A Scheckter Road, KILLARNEY GARDENS, 8000	11A	Scheckter Road	Killarney Gardens	838
Camp Street Extension, SALDANHA, 7395		Camp Street Extension	 SALDANHA	839
75 Silverton Road, Durban, 4001	75	Silverton Road	 DURBAN	841
4 Lanta Street, SOMERSET WEST, 7130	4	Lanta Street	 SOMERSET WEST	850
50 Merestyn Road, Saldanha, 7395	50	Merestyn Road	Saldanha	859
66B Lansdowne Road, Crossroads, PHILLIPPI, 7785	66B	Lansdowne Road	Crossroads	890
Cnr Blaauwberg & Koeberg Roads, TABLE VIEW, 7441		Cnr Blaauwberg & Koeberg Roads	Table View	903
Unit 7 Andre Visser Prk, 1 Eagle St,,  Okavango Park Brackenfell 	1	Eagle Street	Brackenfell 	909
				917
41 Techno Avenue, Techno Park, Stellenbosch, 7600	41	Techno Avenue	STELLENBOSCH	945
240 Main Road, PAARL, 7646		240 Main Road	 PAARL	950
7 Main Street, KNYSNA, 6570		7 Main Street	 KNYSNA	958
P.O. Box 878, Howard Place, Cape Town, 7450	11	Robert Sobukwe Road 	Bellville	968
P O Box 1034, KRAAIFONTEIN, 7570		Industrial Road 	Kraaifontein 	977
P O Box 145, Howard Place, PINELANDS	2	Diesel Road 	Ndabeni	983
7 A Delson Circle, Somerset Business Park, Somerset West, 7601	7A	Delson Circle	SOMERSET WEST 	992
Private Bag X6002, SOUTHERN PAARL, 7624		Contractor Road 	Southern Paarl	1001
74 Voortrekker Street, BELLVILLE, 7536	74	Voortrekker Street	Bellville	1008
				1028
Ystervarkensrug, Saldanha			Ystervarkensrug	1033
Paarden Island			Paarden Eiland	1042
				1056
43 King Edward Street, PAROW, 7500	43	King Edward Street	Parow	1065
153 Donkin Street, BEAUFORT WEST, 6970	153	Donkin Street	 BEAUFORT WEST	1072
Steenberg Road, Pollsmoor Prison Workshops, TOKAI, 7966		Steenberg Road	Tokai	1079
Electron Ave, Isando, Gauteng, 1600		Electron Ave	Isando	1083
30 De la Bat Road Roux Park Worcester Western Cape 6850	30	De la Bat Road Roux Park 	Worcester	5
Barry Streek House 19 Loop Street Cape Town Western Cape 8001	19	Loop Street	 Cape Town 	44
Barry Streek House 19 Loop Street Cape Town Western Cape 8001	19	Loop Street 	 Cape Town 	45
0		0		59
Montrose Place 2nd Floor, Cnr Pasita & Bella Rosa Street Rosenpark Bellville Western Cape 7550		Cnr Pasita & Bella Rosa Street 	 Rosenpark 	119
0		0		225
2 Gladstone Street Boston Bellville Western Cape 7530	2	Gladstone Street  	Boston	273
443 Main Road Observatory CapeTown Western Cape 7701	443	Main Road   	Observatory	457
0		0		470
0		0		490
5 Mountainview Crescent Durbell Durbanville Western Cape 7550	5	Mountainview Crescent   	Durbell	504
Block B Unit 10 N1 City Mews Frans Conradie Drive Goodwood Western Cape 7460		 Frans Conradie Drive 	Goodwood	516
85 Bird Street Stellenbosch CAPE TOWN Western Cape 7599	85	Bird Street 	Stellenbosch	525
85 Bird Street Stellenbosch CAPE TOWN Western Cape 7599	85	Bird Street 	Stellenbosch	528
234 Tonyn Street White City Saldanha Western Cape 7395	234	Tonyn Street  	White City	556
19 Picton Road Parow Western Cape 7499	19	Picton Road 	Parow Industria	569
15 Hillrise Crescent Durbell Durbanville Cape Town Western Cape 7550	15	Hillrise Crescent  	Durbell 	571
Room2. 413 Admin Building, Cape Peninsula University of Technology CAPE TOWN Western Cape 8000		Cape Peninsula University of Technology 	CAPE TOWN	576
0		0		578
3rd Floor, Block B, Woodstock Exchange 66-68 Albert Road Woodstock Cape Town Western Cape 8000		Albert Road 	Woodstock	579
45 Salt River Road Salt River Cape Town Western Cape 7925	45	Salt River Road 	Salt River 	586
Crawford Campus Kromboom Road Crawford undefined Western Cape 7780		Kromboom Road 	Crawford 	612
06 EB East Block, Tannery Park 23A Belmont Road Rondebosch Cape Town Western Cape 7700		Belmont Road 	Rondebosch	638
Unit 106 Block B3 Tokai Village Centre TOKAI Western Cape 7945		Tokai Village Centre 	 TOKAI 	643
16 Main Road Rosebank Western Cape 7700	16	Main Road 	Rosebank	644
11 Roslyn Street  Springbok Park  Brackenfell  Cape Town Western Cape 7561	11	Roslyn Street  	Springbok Park  	652
Hoogstraat 22b Worcester Eastern Cape 6850		Hoogstraat 22b	Worcester	654
157 1st Avenue Parow Cape Town Western Cape 7500	157	1st Avenue 	Parow Industria	666
ICG House 130 Strand Street Cape Town Western Cape 8001	130	Strand Street 	Cape Town	672
ICG House 130 Strand Street Cape Town Western Cape 8001	130	Strand Street 	Cape Town	673
49 Roodebloem Road Woodstock Cape Town Western Cape 7925	49	Roodebloem Road 	Woodstock	680
No 8 Duthie Street Malmesbury Western Cape 7300	8	Duthie Street  	Malmesbury	689
9 Bree Street  Touchstone House CAPE TOWN 8000	9	Bree Street  	Cape Town	711
0		0		720
9th Floor, Manhattan Plaza 100 Edward Road Tygervalley  Western Cape 7443	100	Edward Road 	Tygervalley	727
9th Floor, Manhattan Plaza 100 Edward Road Tygervalley  Western Cape 7443	100	Edward Road 	Tygervalley	728
9 Appeltiser Road Elgin Cape Town Western Cape 7180	9	Appeltiser Road 	Elgin	748
1st Floor Tokai - On – Main Tokai Western Cape 7945				772
Avalon Building 2, 2nd Floor 123 Hope Street Gardens Western Cape 8001	123	Hope Street 	Gardens	788
0		0		832
Shop 8b2 Nobel Park Bellville Western Cape 7530			Bellville	883
ICG House 130 Strand Street Cape Town Western Cape 8001	130	Strand Street	Cape Town	893
1st Floor, Sixty 3 on Main Main Road Paarl Western Cape 7646	63	Main Rd 	Paarl	900
				918
15 Freesia Street Vredenburg Western Cape 7380	15	Freesia Street 	 Vredenburg	938
14 September Street Wellington Cape Town Western Cape 7655	14	September Street 	Wellington	939
13-17 Heerengracht Street Pier House 7th Floor, Office 701 Cape Town Western Cape 8000		Heerengracht Street 	Cape Town	949
Block I, The Terraces  Steenberg Office Park Tokai Western Cape 7945			Tokai	956
Block I, The Terraces  Steenberg Office Park Tokai Western Cape 7945			Tokai	957
13 Sondal Road Eversdal Durbanville Cape Town Western Cape 7550	13		Eversdal 	1029
0		0		1086
334 Albert Rd, Salt River, Cape Town	334	Albert Rd	Salt River	613
	21	New Street	Durbanville	919
Trunk Road 85/1, Smelter, Saldanha, 7380		Trunk Road 	 Smelter	1066
	30	De la Bat Road	WORCESTER	1080
Bellville Campus Sackson Street BELLVILLE SOUTH 7530		Sackson Street	Bellville South 	11
Proton Street, Belhar, 7493		Proton Street	Belhar	13
Vanguard Drive, Wingfield Navy Base, Goodwood, 7460		Vanguard Drive	Wingfield Navy Base	15
1 Proton Road, Cape Town	1	Proton Road	Cape Town	24
1 Sackson Street, Belville South, 7530	1	Sackson Street	 Belville South	25
Vanguard Drive, Wingfield Navy Base, Goodwood, 7460		Vanguard Drive	Goodwood 	26
Vanguard Drive Wingfield Navy Base GOODWOOD 7460		Vanguard Drive 	Goodwood 	27
19 Section Street	19	Section Street	Paarden Eiland	40
Lynx Street	5	Lynx Street	Paarden Eiland	66
Olen Laan 11	11	Olen Laan	PAARL	67
22 Oosterland Street	22	Oosterland Street	PAARL	68
Rheebok Slot		Rheebok Slot	WELLINGTON	70
10 Freedom Drive	10	Freedom Drive	Milnerton 	72
Freedom Way	10	Freedom Way	Milnerton 	74
22 Osterland Street	22	Oosterland Street	PAARL	77
8 Jan Van Riebeeck Road	8	Jan Van Riebeeck Road	PAARL	79
Bill Jeffrey Avenue, Mossel Bay		Bill Jeffrey Avenue	MOSSEL BAY 	97
15 B Mail Street	15B	15 Mail Street	Epping Industry	112
10 Station Road	10	Station Road	Kuilsriver 	114
21 Warrington Road	21	Warrington Road	Claremont 	125
Unit 4,Graphtek Park 23 Techno Crescent	20	20 Mail Street	Goodwood	126
43 Mansell Avenue	43	Mansell Avenue	Killarney Gardens	128
Unit 7 Prodev Park, Langenegger Street, Gangs Centre		 Langenegger Street	STRAND	130
Unit 8 Pro Dev Park, Langenegger Street, Gants Centre, Strand, Cape Town, 7140		 Langenegger Street	STRAND	131
Pro Dev Park Unit 8, Langenegger Street, Strand, 7140		 Langenegger Street	STRAND	133
Unit 7, Pro Dev Park, Langenegger Street Gants Centre, Strnd		 Langenegger Street	STRAND	134
Lakeshore Road		Lakeshore Road	Muizenberg 	146
Lakeshore Road		Alexandra Road	 Ndabeni,	147
		Doneraille Street	GEORGE	157
36 Thor Circle	36	Thor Circle	Thornton	175
71 Stewart Street	71	Stewart Street	Goodwood 	178
68 7th Ave	68	7th Ave	Kensington 	185
Cnr Caxton & Duminy Street	6	Duminy Street	Parow East	187
16 Old Mill Road	16	Old Mill Road	Ndabeni	191
25B Junction Street, Tygerberg Business Park, Parrow, 7532	25B	Junction Street	Parow  	192
50 A Junction Street	50A	Junction Street	Parow Industrial 	211
5 Koets Street	5	Koets Street	Parow Industrial	219
Basil Crescent	18	Basil Crescent	Ottery East,	266
Oosterlang Road		Oosterland Street	PAARL	267
Steelbank Complex	6	Reuben Kaye Road 	Parow Industria	293
11 Techno Crescent	11	Techno Crescent	Cape Town 	306
Old Railway Parcel Building		Cnr Nyman Street & 11th Avenue,	Kensington	322
16 Strawberry Mall	16	Strawberry Mall	Ottery 	324
		Fabriek Street	VREDENBERG 	364
Charl Uys Drive, Atlantis Industria		Charl Uys Drive	Atlantis Industria	373
5 Fabriek Street, Vredenburg, 7381	5	Fabriek Street	VREDENBURG	375
C/O Church + Marsh STR, Mossel Bay, 6506		C/O Church + Marsh Street	MOSSEL BAY 	466
133 Mitchell Street, George	133	Mitchell Street	GEORGE	467
10 Third Street	10	Third Street	Montague Gdns Ind	468
Unit 10A Central Park		Epping Ave	Elsies River Estate	477
APL Cartons		Abattoir Street	Industria	487
4 Reier Street, Okavango Industrial Area, Brackenveldt	4	Reier Street	Brackenfell 	491
10 Lood Street	10	Lood Street	Brackenfell Industrial	493
OSSIE Urban Street, George Industria		OSSIE Urban Street	George Industria	507
Versaille Street		Versaille Upper Street	WELLINGTON	530
Cnr Neil Hare & Johan Heyns Streets		Cnr Neil Hare & Johan Heyns Streets	Athlone Industria	583
Thornton Campus Cnr Cedar & Poplar Roads Thornton CAPE TOWN 8000		Cnr Cedar & Poplar Roads 	Thornton 	611
Cnr of Eland and Protea St, Athlone		Cnr of Eland and Protea St	Athlone	628
Jan Smuts Drive, Pinelands		Jan Smuts Drive	Pinelands	629
Cnr of Cedar and Poplar Rds, Thornton		Cnr of Cedar and Poplar Rds	Thornton	630
P.O.Box 891	23	Textile Street & Thesen Street	PAARL	632
382 Voortrekker Road		8th Ave and 16th Street 	Elsies River 	635
10 Station Road	10	Station Road		647
Eliot Avenue		Eliot Avenue	Epping Industria 2	655
Cnr Caxton & Duminy Street		Cnr Caxton & Duminy Street	Parow East	659
CTP Book Printers	12	Boompies Street 	Parow East	661
19A Woodlands Road	19A	Woodlands Road	Woodstock 	706
Van der Stel Street		Van der Stel Street	PAARL	713
7 Hibernia Street	7	Hibernia Street	GEORGE	719
46 New Market Street, Cape Town	46	New Market Street	Cape Town	735
Westlake Drive, Westlake, Tokai, 7966		Westlake Drive	Westlake	782
Maitland Industrial Park		Voortrekker Road 	Maitland	786
378 Voortrekker Road, Goodwood, Cape Town 8001	378	Voortrekker Road	Goodwood	789
20 Mail Street	20	Mail Street	Cape Town 	792
	24	Kinghall Avenue 	Epping Industria 2	794
Private Bag X 6858	8	Lowe Stoft Street 	Paarden Eiland	804
8 Lowe stoft street	8	Lowe Stoft street	Paarden Eiland	805
105 Hope Street	20	Hewett Avenue,	Epping Ind 2 	827
Gamka Street, Kaymor Industria	8	Gamka Street	Stikland Industria	837
9A Bell Crescent	25	Mercury Crescent	Ottery 	840
11 Cornwall Street	11	Cornwall Street	Woodstock 	842
Unit 114/5 Mega Park, 15 Mill street, Bellville South Industrial, Cape Town, 8001	15	Mill street	Bellville South 	870
Bridge Road	30	Bridge Road	Stikland	871
7 Ravenscraig Road	41	 Sir Lowry Road	Woodstock 	874
122 St George's Mall	122	St George's Mall	Cape Town 	880
35 9th Ave	35	9th Ave	Maitland	897
				920
Private Bag X10,Kernkrag, Western Cape		R 27	Cape Town 	960
Bofors Circle		Bofors Circle	Epping Industrial 	994
1st Street		1st Street	Maitland	998
Unit 6B, Saxonburg Business Park, Barlinka Road, Blackheath, 8000		 Barlinka Road	Blackheath 	1026
13-19 Hillstar Avenue	13-19	Hillstar Avenue	Ottery 	1031
Cnr 11th Avenue & Nyman Street, Kensington		Cnr 11th Avenue & Nyman Street	Kensington	1040
14 Fabriek Street		Range Road	Blackheath	1061
Dacres Avenue		Dacres Avenue	Epping Industrial	1067
Printpak Building	114	 Dennis Road Atholl Gardens, 	Sandton	1069
Cnr Hewitt Avenue & Bofors Circle		Cnr Hewitt Avenue & Bofors Circle	Epping 	1070
4 Bayete Street	4	Bayete Street	Ndabeni	1073
8 Red Street	8	Red Street	MANDINI	1075
Philippi Street		Sacks Circle	Bellville	1089
Van Eycklaan, Ladismith Sekonder, LADISMITH		Van Eycklaan	LADISMITH	6
INTKANGANISO HS, NJONGO STREET, KHAYELITSHA		NJONGO STREET	KHAYELITSHA	7
LANSDOWNE ROAD, SITE B, KHAYELITSHA		LANSDOWNE ROAD	SITE B	8
A.C.J PHAKADE PRIM, NOXOLO STEET, STRAND		NOXOLO STREET	STRAND	9
KRUISVALLEI ROAD, OBIQUA, TULBAGH		KRUISVALLEI ROAD	OBIQUA	35
HYDRA AVENUE, OCEAN VIEW, FISH HOEK		HYDRA AVENUE	OCEAN VIEW	36
HOERSKOOLWEG, VREDENDAL NOORD, VREDENDAL		VREDENDAL NOORD	VREDENDAL NOORD	38
ORCHARD PRIMARY, DE DOORNS, DE DOORNS		DE DOORNS	DE DOORNS	53
SPRINGBOK AVENUE, BRIDGTON, OUDTSHOORN		SPRINGBOK AVENUE	BRIDGTON	55
OUDTSHOORN CORRECTIONAL SERVIC,VICTORIA STREET, OUDTSHOORN		VICTORIA STREET	OUDTSHOORN	56
MEYERLAAN, MEYERSENTRUM, GENADENDAL		MEYERLAAN	MEYERSENTRUM	57
CHURCH STREET, HAWSTON, HAWSTON		CHURCH STREET	HAWSTON	58
STAART VAN PAARDEBERG, AGTER PAARL, PAARL		AGTER PAARL	AGTER PAARL	63
LONG STREET, PORTERVILLE		LONG STREET	PORTERVILLE	64
ATKINSON MANOR, MISSION STREET, PACALTSDORP		MISSION STREET	PACALTSDORP	83
PEARLY BEACH COMMUNITY HALL, PEARLY BEACH, PEARLY BEACH		PEARLY BEACH	PEARLY BEACH	87
TYHOLORHA PRIMARY, SANDKRAAL ROAD, GEORGE		SANDKRAAL ROAD	GEORGE	91
RANGE STREET, THE RANGE, ELSIES RIVER		RANGE STREET	THE RANGE	92
PERSEVERANCE SSS, ALABAMA ROAD, BELHAR		ALABAMA ROAD	BELHAR	94
C/O PETUNIA PRIMARY SCHOOL, SCOTTSVILLE, KRAAIFONTEIN		SCOTTSVILLE	SCOTTSVILLE	98
GUGULETHU COMPREHENSIVE, NY 50, GUGULETHU		NY 50	GUGULETHU	99
MEULENHOF PS, BAKENSTRAAT, PHILADELPHIA		BAKENSTRAAT	PHILADELPHIA	101
SITHEMBELE MATISO HIGH, KOORNHOOF STREET, NEW CROSSROADS		KOORNHOOF STREET	NEW CROSSROADS	104
AANDBLOM STRAAT, P/A STEYNVILLE KOSHUIS, PIKETBERG		AANDBLOM STRAAT	PIKETBERG	105
RAWSONVILLE PRIMARY SCHOOL, DE NOVA, RAWSONVILLE		DE NOVA	DE NOVA	107
PLETTENBERG BAY SECONDARY SCHO,EBENEZER HIEGHTS, PLETTENBERG BAY		EBENEZER HIEGHTS	EBENEZER HIEGHTS	109
QOLWENI, PLETTENBERG BAY		PLETTENBERG BAY	PLETTENBERG BAY	110
DCS POLLSMOOR EDUCATION, STEENBERG ROAD, TOKAI		STEENBERG ROAD	TOKAI	111
LANGSTRAAT, PORTERVILLE, PORTERVILLE		LANGSTRAAT	PORTERVILLE	117
C/O MORGENSTER & MERRYDALE AVE,PORTLANDS, MITHCHELL'S PLAIN		PORTLANDS	PORTLANDS	118
LYELL STREET, HAMLET, CERES		LYELL STREET	HAMLET	124
PROEFPLAAS COMMUNITY HALL, OUDTSHOORN, OUDTSHOORN		OUDTSHOORN	OUDTSHOORN	137
THUSONG BUILDING, PADDY STREET, ROBERTSON		PADDY STREET	ROBERTSON	138
PROTEM PLAAS, PROTEM, BREDASDORP		PROTEM	PROTEM	142
c/o LONG and WATERFRONT STREET,KNYSNA, KNYSNA		c/o LONG and WATERFRONT STREET	KNYSNA	150
NEBO PRIMARY, STROEBEL STREET, RAVENSMEAD		STROEBEL STREET	RAVENSMEAD	153
REDELINGHUYS PRIMARY, CHRIS MATTHUS AVENUE, REDELINGHUYS		CHRIS MATTHUS AVENUE	REDELINGHUYS	158
POP CENTRE, RIEBEEK KASTEEL, MALMESBURY		RIEBEEK KASTEEL	RIEBEEK KASTEEL	162
POPCENTRE, MERINOL STREET, RIEBEECKWES		MERINOL STREET	RIEBEECKWES	163
DISALAAN, RIVIERSONDEREND, RIVIERSONDEREND		DISALAAN	RIVIERSONDEREND	164
LYELL STREET, CERES, CERES		LYELL STREET	CERES	165
RIVERLANDS PRIMER, ATTAWAY, RIVERLANDS		ATTAWAY	ATTAWAY	166
PANORAMA PRIMARY, VAN DER BERG STRAAT, RIVERSDAL		VAN DER BERG STRAAT	RIVERSDAL	167
DISALAAN, RIVIRSONDEREND, RIVIERSONDEREND		DISALAAN	RIVIRSONDEREND	168
THUSONG BUILDING, PADDY STREET, ROBERTSON		PADDY STREET	ROBERTSON	169
C/o VAN OUDTSHOORN STREET, CORRECTIONAL CENTRE, ROBERTSON		C/o VAN OUDTSHOORN STREET	CORRECTIONAL CENTRE	170
ROCKLANDS PUBLIC LIBRARY, PARK AVENUE, MITCHELLS PLAIN		PARK AVENUE	MITCHELLS PLAIN	171
OVERHEX COMMUNITY HALL, OVERHEX, WORCESTER		OVERHEX	OVERHEX	173
Ruststasie Prim, MOORREESBURG, MOORREESBURG		MOORREESBURG	MOORREESBURG	179
ZERILDA STEYN HALL, VAN RIEBEECK, RUYTERWACHT		VAN RIEBEECK	VAN RIEBEECK	182
UKHANYO PRIMARY, POKELA ROAD, MASIPHUMELELE		POKELA ROAD	MASIPHUMELELE	193
NALUXOLO PRIMARY, HELEN JOSEPH STREET, SAMORA MACHEL		HELEN JOSEPH STREET	SAMORA MACHEL	194
SANDHILLS PRIMER, SANDHILLS, DE DOORNS		SANDHILLS	SANDHILLS	195
MOSSEL STREET, DALMEIDA, MOSSEL BAY		MOSSEL STREET	DALMEIDA	199
PETUNIA STRAAT, ONRUS, SARON		PETUNIA STRAAT	ONRUS	200
ARNOLD DE JAGER ROAD, TOEKOMSRUS, OUDTSHOORN		ARNOLD DE JAGER ROAD	TOEKOMSRUS	202
VGK KERKSAAL, SCHOEMANSHOEK, OUDTSHOORN		SCHOEMANSHOEK	SCHOEMANSHOEK	207
DARLING WEG, SCHOONSPRUIT, WESBANK		SCHOONSPRUIT	SCHOONSPRUIT	208
UC CHURCH, BUITEKANT STRAAT, CLANWILLIAM		BUITEKANT STRAAT	CLANWILLIAM	213
SEPTEMBERSKRAAL, PORTERVILLE, PORTERVILLE		PORTERVILLE	PORTERVILLE	215
VICTORIA CENTRE, VICTORIA STREET, SOMERSET WEST		VICTORIA STREET	SOMERSET WEST	217
GREATMORE STREET, WOODSTOCK, CAPE TOWN		GREATMORE STREET	WOODSTOCK	218
MARCONI BEAM PRIMARY, DEMOCRACY DRIVE, MILNERTON		DEMOCRACY DRIVE	MILNERTON	221
PENZANCE AVENUE, HOUT BAY, HOUT BAY		PENZANCE AVENUE	HOUT BAY	222
SIKELELA PRIM, LANSDOWN ROAD, NYANGA EAST		LANSDOWN ROAD	NYANGA EAST	223
SIMONDIUM PRIMER, HOOFSTRAAT, SIMONDIUM		HOOFSTRAAT	SIMONDIUM	229
DELFT PRIMARY, VOORBRUG, DELFT		VOORBRUG	VOORBRUG	230
SIR LOWRY'S PASS PRIM, GORDONS BAY ROAD, GORDONS BAY		GORDONS BAY ROAD	GORDONS BAY	231
BOSDUIFSTRAAT, BITTERWATER, LEEU-GAMKA		BOSDUIFSTRAAT	BITTERWATER	232
TREVOR MANEUL PRIMARY, SIERA STREET, FISAANTEKRAAL, DURBANVILLE		SIERA STREET	FISAANTEKRAAL	234
THUSONG BUILDING, PADDY STREET, ROBERTSON		PADDY STREET	ROBERTSON	235
EAGLE STREET, SITE C, KHAYELITSHA		EAGLE STREET	SITE C	237
C/O SLANGHOEK PRIMARY, DRIEFONTEIN, RAWSONVILLE		DRIEFONTEIN	DRIEFONTEIN	240
SLOT-VAN-PAARL FARMS, AGTER - PAARL, PAARL		AGTER - PAARL	AGTER - PAARL	242
HERMONWEG, WELLINGTON, WELLINGTON		WELLINGTON	WELLINGTON	245
DISALAAN, RIVIERSONDEREND, RIEVIERSONDEREND		DISALAAN	RIVIERSONDEREND	246
ACACIA ROAD, GRASSY PARK, GRASSY PARK		ACACIA ROAD	GRASSY PARK	264
NDANENI STREET, LANGA, CAPE TOWN		NDANENI STREET	LANGA	269
ST. ALBANS PRIMARY, VOORSTRAAT, WELLINGTON		VOORSTRAAT	WELLINGTON	270
ST HELENABAAI PRIMER, SKOOLSTRAAT, LAINGVILLE		SKOOLSTRAAT	LAINGVILLE	271
STAWELKLIP PRIM, STAWELKLIP, PIKETBERG		STAWELKLIP	STAWELKLIP	275
SYMPHONY AVENUE, STEENBERG, STEENBERG		SYMPHONY AVENUE	STEENBERG	276
LUCKHOFF SEN SEC, BLOEKOM AVENUE, STELLENBOSCH		BLOEKOM AVENUE	STELLENBOSCH	278
AANDBLOM STREET, STEYNVILLE HOSTEL, PIKETBERG		AANDBLOM STREET	PIKETBERG	280
DISALAAN, RIVIERSONDEREND, RIVIERSONDEREND		DISALAAN	RIVIERSONDEREND	281
THUSONG BUILDING, PADDY STREET, ROBERTSON		PADDY STREET	ROBERTSON	283
ANDREW WHYTESSTRAAT, SWELLENDAM, MONTAGU		ANDREW WHYTESSTRAAT	SWELLENDAM	287
CRAGS PRIMARY, SKOOL STREET, THE GRAGS		SKOOL STREET	THE GRAGS	295
THEMBALETHU WORKSHOP, GUGULETHU, GUGULETHU		GUGULETHU	GUGULETHU	304
TOORKRANS, PORTERVILLE, PORTERVILLE		PORTERVILLE	PORTERVILLE	311
DIE KRUINE SEKONDERE SKOOL, SKOOL STRAAT, TOUWSRIVIER		SKOOL STRAAT	TOUWSRIVIER	315
LYELL STREET, CERES, CERES		LYELL STREET	CERES	330
TYGERBERG HOSPITAAL, FRANSIE VAN ZYL LAAN, PAROW		FRANSIE VAN ZYL LAAN	PAROW	332
UITZIG SECONDARY, JACARANDA AVENUE, UITSIG		JACARANDA AVENUE	UITSIG	333
SAGWITYI STREET, PHILIPPI, PHILIPPI		SAGWITYI STREET	PHILIPPI	337
PEOPLE'S CENTRE, DE DOORNS, DE DOORNS		DE DOORNS	DE DOORNS	343
KERK STRAAT, VAN RHYNSDORP, VAN RHYNSDORP		KERK STRAAT	VAN RHYNSDORP	344
MANDELA STREET, MASKAMSIG, VAN RHYNSDORP		MANDELA STREET	MASKAMSIG	345
Van Wyksdorp Primer, Skoolstraat, LADISMITH		Skoolstraat	LADISMITH	346
VAN ZYLS DAM FARM, GAMKA EAST, LADISMITH		GAMKA EAST	GAMKA EAST	347
NOORDHOEK PRIMARY, NOORDHOEK STREET, LAAIPLEK		NOORDHOEK STREET	LAAIPLEK	348
OU KOSIE DE WET PRIMER, BUITEKANT STREET, VILLIERSDORP		BUITEKANT STREET	VILLIERSDORP	351
VLAKTEPLAAS, VLAKTEPLAAS, OUDTSHOORN		VLAKTEPLAAS	VLAKTEPLAAS	353
VOORBERG CORRECTIONAL SERVICE, PORTERVILLE, PORTERVILLE		PORTERVILLE	PORTERVILLE	354
DELFT PRIM SCHOOL, VOORBRUG AVENUE, DELFT		VOORBRUG AVENUE	DELFT	355
VESTUS STREET, LEONSDALE, ELSIES RIVER		VESTUS STREET	LEONSDALE	356
SINQOLAMTHI ROAD, LOWER CROSSROAD, PHILLIPI EAST		SINQOLAMTHI ROAD	LOWER CROSSROAD	358
SIYAFUNEKA PRIMARY SCHOOL, ZWELETEMBA, WORCESTER		ZWELETEMBA	ZWELETEMBA	359
OLD CLINIC, HOSPITAL ROAD, WELLINGTON		HOSPITAL ROAD	WELLINGTON	362
HOSPITAL STREET, OLD CLINIC, WELLINGTON		HOSPITAL STREET	WELLINGTON	363
WESTBANK HIGH SCHOOL, BEAVER STREET, KUILS RIVER		BEAVER STREET	KUILS RIVER	376
PANORAMA PRIMARY, SIXTH STREET, LOUWVILLE		SIXTH STREET	LOUWVILLE	379
SILVERSANDS AVENUE, WESTRIDGE SEC, MITCHELLS PLAIN		SILVERSANDS AVENUE	MITCHELLS PLAIN	380
RHOLIHLAHLA STREET, WHITE LOCATION, KNYSNA		RHOLIHLAHLA STREET	WHITE LOCATION	381
TOORKRANS, LOURIW STREET, PORTERVILLE		LOURIW STREET	PORTERVILLE	384
BOSTON STREET, FACTRETON, MAITLAND		BOSTON STREET	FACTRETON	385
CRYGUNS ROAS, WINDMEUL, PAARL		WINDMEUL	WINDMEUL	386
WILLIAM TAYLOR AVENUE, BELLVILLE SOUTH, BELLVILLE SOUTH		WILLIAM TAYLOR AVENUE	BELLVILLE SOUTH	387
LYELL STREET, OLD CERES PRIM, CERES		LYELL STREET	CERES	388
LYELL STREET, HAMLET, CERES		LYELL STREET	HAMLET	389
ZUURBERG ROAD, HEIDEVELD, HEIDEVELD		ZUURBERG ROAD	HEIDEVELD	390
GREATMORE STREET, WOODSTOCK, WOODSTOC		GREATMORE STREET	WOODSTOCK	391
GREYSTRAAT, WORCESTER, WORCESTER		GREYSTRAAT	WORCESTER	392
WORCESTER MALE AND FEMALE CENT,C/O DURBAN AND SOMERSET STREET,WORCESTER		C/O DURBAN AND SOMERSET STREET	WORCESTER	393
TOMMY JOUBERT BUILDING, COURTNEY STREET, GEORGE		COURTNEY STREET	GEORGE	396
MATSHOBA STREET, WALLACEDENE, KRAAIFONTEIN		MATSHOBA STREET	WALLACEDENE	397
LB PRIMARY AMALIENSTEIN, ZOAR, ZOAR		ZOAR	ZOAR	398
THUSONG CENTRE, PADDY STREET, ROBERTSON		PADDY STREET	ROBERTSON	399
SHLOBO STREET, ZWELIHLE, HERMANUS		SHLOBO STREET	ZWELIHLE	400
Bambinos Creche, Kerkstraat, Abbotsdale    		Kerkstraat	Abbotsdale	454
YOUTH CENTRE, DIEPKLOOF, HEIDELBERG		DIEPKLOOF	DIEPKLOOF	472
Meaker Street Huguenot Paarl		Meaker Street Huguenot Paarl	Paarl	476
Prince Alber Primary, Ensilina Street, Prince Albert   		Ensilina Street	Prince Albert	478
School Sttreet, Standford, Standford 		School Street	Standford	480
Alpine Way, Beacon Valley, Mitchells Plain		Beacon Valley	Beacon Valley	481
Jakkalsfontein, Paarl Road, Malmesbury 		Paarl Road	Malmesbury	486
Beverly Street, Kewtown		Beverly Street	Kewtown	492
THUSONG BUILDING, PADDY STREET, ROBERTSO		PADDY STREET	ROBERTSO	494
H/V GROSVENOR & HERMES LAAN, SAXONSEA, ATLANTIS		H/V GROSVENOR & HERMES LAAN	SAXONSEA	496
PA AANDBLOMSTRAAT, STEYNVILLE SEK, PIKETBERG		PA AANDBLOMSTRAAT	PIKETBERG	498
DURHAM AVENUE, SALT RIVER, SALT RIVER		DURHAM AVENUE	SALT RIVER	499
BOSDUIFSTRAAT, BITTERWATER, LEEU GAMKA		BOSDUIFSTRAAT	BITTERWATER	500
FIRST AVENUE, HILLSIDE, BEAUFORT WEST		FIRST AVENUE	HILLSIDE	505
HEUWEL STREET, RUSTDENE, BEUFORT WEST		HEUWEL STREET	RUSTDENE	506
SUIKERBOSSIE ROAD, BELHAR, BELHAR		SUIKERBOSSIE ROAD	BELHAR	509
LANGSTRAAT, BERGHOF, PORTERVILL		LANGSTRAAT	BERGHOF	512
KUDU ROAD, BRIDGTON, OUDTSHOORN		KUDU ROAD	BRIDGTON	513
DISALAAN, RIVIERSONDEREND, RIVIERSONDEREND		DISALAAN	RIVIERSONDEREND	515
BISSETSDRIFT PRIMÊR, VYEBOOM, VILLIERSDORP		VYEBOOM	VYEBOOM	520
MANDELA STREET, BITTERFONTEIN, VAN RHYNSDORP		MANDELA STREET	BITTERFONTEIN	521
MONTAGUE STREET, BLANCO, GEORGE		MONTAGUE STREET	BLANCO	522
MAGUBUDELA STREET, BLOEKOMBOS, KRAAIFONTEIN		MAGUBUDELA STREET	BLOEKOMBOS	523
BONGOLETHU PRIMARY, DYAMALA STREET, PHILLIPI		DYAMALA STREET	PHILLIPI	536
THUSONG BUILDING, PADDY STREET, ROBERTSON		PADDY STREET	ROBERTSON	537
MODDERDAM HIGH SCHOOL, BONTEHEUWEL AVENUE, BONTEHEUWEL		BONTEHEUWEL AVENUE	BONTEHEUWEL	538
BOTHA PRIMARY, WYSERSDRIFT, RAWSONVILLE		WYSERSDRIFT	WYSERSDRIFT	547
BOTRIVIER PRIM, PARK STREET, BOTRIVIER		PARK STREET	BOTRIVIER	548
BRANDVLEI PRISON, RAWSONVILLE ROAD, WORCESTER		RAWSONVILLE ROAD	WORCESTER	549
BRANDWAG, MOSSELBAAI, MOSSELBAAI		MOSSELBAAI	MOSSELBAAI	551
RECREATION STREET, BREDASDORP, BREDASDORP		RECREATION STREET	BREDASDORP	552
PADDY STREET, ROBERTSON, ROBERTSON		PADDY STREET	ROBERTSON	553
BRUSHWOOD ROAD, BRIDGETOWN, CAPE TOWN		BRUSHWOOD ROAD	BRIDGETOWN	555
PA BROODKRAAL, PIKETBERG, PIKETBERG		PIKETBERG	PIKETBERG	560
SOMERSET STREET, SWELLENDAM, SWELENDAM		SOMERSET STREET	SWELLENDAM	564
SHIPMAN ROAD, DIEPRIVIER, DIEPRIVIER		SHIPMAN ROAD	DIEPRIVIER	565
OLD LIBRARY BUILDING, BERGSIG, CALITZDORP		BERGSIG	BERGSIG	572
STRAND STREET, 301(A) MATADOR CENTRE, CAPE TOWN		STRAND STREET	CAPE TOWN	585
VRYGROND AVENUE, CAPRICORN PRIMARY, MUIZENBERG		VRYGROND AVENUE	MUIZENBERG	587
FIRST AVENUE, HILLSIDE, BEAUFORT WEST		FIRST AVENUE	HILLSIDE	591
CHATSWORTH PRIMARY, CHATSWORTH, MALMESBURY		CHATSWORTH	CHATSWORTH	596
ANEMONE STREET, CITRUSDAL, CITRUSDAL		ANEMONE STREET	CITRUSDAL	600
CNR NEW EISLEBEN/MILLER STREET,CROSS ROADS, NYANGA		CNR NEW EISLEBEN/MILLER STREET	CROSS ROADS	602
CURRY STREET, CLOETESVILLE, STELLENBOSCH		CURRY STREET	CLOETESVILLE	608
CONVILLE PRIM, PIENAAR STREET, GEORGE		PIENAAR STREET	GEORGE	649
C/O WBHS, LOVERS WALK, WYNBERG		LOVERS WALK	LOVERS WALK	665
GROENHEUWEL PRIMARY, SYMPHONY AVENUE, GROENHEUWEL		SYMPHONY AVENUE	GROENHEUWEL	668
SILUMKO STREET, KHAYELTISHA, KHAYELITSHA		SILUMKO STREET	KHAYELTISHA	669
DISALAAN, RIVIERSONDEREND, RIVIERSONDEREND		DISALAAN	RIVIERSONDEREND	679
VOORUITSIG PRIMARY, DURBAN STREET, DARLING		DURBAN STREET	DARLING	684
LONG STREET, DASBOSCH, PORTERVILLE		LONG STREET	DASBOSCH	685
GORDON RD, HEATHFIELD, HEATHFIELD		HEATHFIELD	HEATHFIELD	688
PEOPLE'S CENTRE, DE DOORNS - EAST, DE DOORNS		DE DOORNS - EAST	DE DOORNS - EAST	690
DE LA ROCHE, HOOFSTRAAT, NOORDER PAARL		HOOFSTRAAT	NOORDER PAARL	691
DE RUST SECONDARY, DE RUST, 2ND AVENUE, OUDTSHOORN		DE RUST	DE RUST	692
PATRYSLAAGTYE, DE RUST LANDGOED, GRABOUW		DE RUST LANDGOED	DE RUST LANDGOED	694
DE TUINLANDGOED, HALFMANSHOF, PORTERVILLE		HALFMANSHOF	HALFMANSHOF	695
SUNRAY PRIMARY, MAIN ROAD, DELFT		MAIN ROAD	DELFT	698
SUNRAY PRIMARY, DELFT MAIN ROAD, DELFT		DELFT MAIN ROAD	DELFT	699
DIAZVILLE PRIMARY, VRAAGOM STREET, DIAZVILLE		VRAAGOM STREET	DIAZVILLE	703
SECOND AVENUE, LOTUS RIVER, CAPE TOWN		SECOND AVENUE	LOTUS RIVER	704
DIE HOEK FARMS, EN BO DOORNRIVIER, WORCESTER		EN BO DOORNRIVIER	EN BO DOORNRIVIER	705
VAN EYCK AVENUE, LADISMITH SEKONDER, LADISMITH		VAN EYCK AVENUE	LADISMITH SEKONDER	708
DIE POORT, UITZIG FARM (N7), CITRUSDAL		UITZIG FARM (N7)	UITZIG FARM (N7)	709
JABAVU ROAD, KWA-MANDLENKOSI, BEAUFORT WEST		JABAVU ROAD	KWA-MANDLENKOSI	710
NIEUWE MORGEN PRIM, SCHERPENHEUWEL, WORCESTER		SCHERPENHEUWEL	SCHERPENHEUWEL	716
MANDELA STREET, VANRHYNSDORP, VANRHYNSDORP		MANDELA STREET	VANRHYNSDORP	717
DRAKENSTEIN PRISON, WEMMERSHOEK ROAD, PAARL		WEMMERSHOEK ROAD	PAARL	718
DWARSRIVIER CORRECTIONAL SERVI,DE LIEDFE ROAD, WOLSELEY		DE LIEDFE ROAD	WOLSELEY	723
DYSSELDORP PRIMARY, DYSSELS ROAD, DYSSELSDORP		DYSSELS ROAD	DYSSELSDORP	729
SKOOLSTRAAT, EBENHAUSER, VREDENDAL		SKOOLSTRAAT	EBENHAUSER	734
EDENDALE PRIMARY, C/O MANENBERG & PHILLIPPI CIRC,MANENBERG		C/O MANENBERG & PHILLIPPI CIRC	MANENBERG	737
PETUNIA STREET, SILVERTOWN, ATHLONE		PETUNIA STREET	SILVERTOWN	738
EERSTERIVER SECONDARY SCHOOL, BEVERLY STREET, EERSTE RIVER		BEVERLY STREET	EERSTE RIVER	739
SITHANDATHU AVENUE, NYANGA MEDICAL CENTRE, NYANGA		SITHANDATHU AVENUE	NYANGA	742
MAIN ROAD, ELANDS BAY, ELANDS BAY		MAIN ROAD	ELANDS BAY	744
ELANDSRIVIER PRIMARY, VILLIERSDORP, VILLIERSDORP		VILLIERSDORP	VILLIERSDORP	745
APPLEISER ROAD, ELGIN, GRABOUW		APPLEISER ROAD	ELGIN	749
BOWLER STRAAT, LEONSDALE, ELSIES RIVIER		BOWLER STRAAT	LEONSDALE	751
LYELL STREET, CERES, CERE		LYELL STREET	CERES	770
LYELL STREET, HAMLET, CERES		LYELL STREET	HAMLET	771
DASSIE ROAD, BONGOLETHU, OUDTSHOORN		DASSIE ROAD	BONGOLETHU	787
BLOEKOM AVENUE, FOREST HEIGHTS, EERSTE RIVER		BLOEKOM AVENUE	FOREST HEIGHTS	793
GROENDAL HOER SKOOL, JAFTA SINGEL, FRANSCHOEK		JAFTA SINGEL	JAFTA SINGEL	798
CLANWILLIAM SECONDARY SCHOOL, OUKAAPSEWEG, CLANWILLIAM		OUKAAPSEWEG	OUKAAPSEWEG	802
GARDENIA PRIMARY SCHOOL, CHESTNUT WAY, BELHAR		CHESTNUT WAY	CHESTNUT WAY	809
GELUKWAARTS, PORTERVILLE, PORTERVILLE		PORTERVILLE	PORTERVILLE	810
MEYER AVENUE, MEYER CENTRE, GENADENDAL		MEYER AVENUE	MEYER CENTRE	811
TABATA STREET, THEMBALETHU, GEORGE		TABATA STREET	THEMBALETHU	812
UNION STREET, GEORGE SOUTH, GEORGE		UNION STREET	GEORGE SOUTH	813
YORK STREET, GEORGE		YORK STREET	GEORGE	814
THEEWATERSKLOOF PLAAS, VILLIERSDORP, VILLIERSDORP		VILLIERSDORP	VILLIERSDORP	818
DEMPER STREET, CALEDON, CALEDON		DEMPER STREET	CALEDON	820
GOODWOOD PRISON, MONTAGUE DRIVE, MONTE VISTA		MONTAGUE DRIVE	MONTAGUE DRIVE	821
GORDON HIGH, DE BEERS AVENUE, SOMERSET WEST		DE BEERS AVENUE	SOMERSET WEST	822
PETUNIA STREET, ONS RUS, GOUDA		PETUNIA STREET	ONS RUS	823
GOUDINI PRIMARY, GOUDINI-BAD, RAWSONVILLE		GOUDINI-BAD	GOUDINI-BAD	824
GRAAFWATER PRIMARY, SONNEBLOM STREET, GRAAFWATER		SONNEBLOM STREET	GRAAFWATER	825
VICTORIA ROAD, GRASSY PARK HS, GRASSY PARK		VICTORIA ROAD	GRASSY PARK	829
ROODSHOEK WAY, WELLINGTON, WELLINGTON		WELLINGTON	WELLINGTON	833
DALWEIDE PRIMARY, SYMPHONY AVENUE,GROENHEUWEL, PAARL		SYMPHONY AVENUE	GROENHEUWEL	835
GSH Training and Development C,Groote Schuur Hospital, OBSERVATORY		Groote Schuur Hospital	OBSERVATORY	836
NORTINGHAM STREET, SHERWOOD PARK, ATLANTIS		NORTINGHAM STREET	SHERWOOD PARK	843
EDUCATION AND TRAINING, ADDY STREET, WELLINGTON		ADDY STREET	WELLINGTON	845
P/A GREYTON ROAD, HELDERSTROOM PRISON, CALEDON		P/A GREYTON ROAD	CALEDON	848
HERMANUSHEUWEL PLAAS, HERMANUSHEUWEL/ZOUTKLOOF, BREDASDORP		HERMANUSHEUWEL/ZOUTKLOOF	HERMANUSHEUWEL/ZOUTKLOOF	851
HERMON, WELLINGTON, WELLINGTON		WELLINGTON	WELLINGTON	852
DIEPKLOOF YOUTH CENTRE, LAMOELA STREET, HEIDELBERG		LAMOELA STREET	HEIDELBERG	853
C/O AJAX AND HIGHLANDS ROAD, WOODLANDS, MITCHELL'S PLAIN		C/O AJAX AND HIGHLANDS ROAD	WOODLANDS	854
HOLVLEI PRIMER, HOLVLEI, MOORREESBURG		HOLVLEI	HOLVLEI	855
C/O WATERBLOM STREET AND MAIN, WEST BANK, KUILS RIVER		C/O WATERBLOM STREET AND MAIN	WEST BANK	857
HOPEFIELD PRIMARY, SCHOOL STREET, HOPEFIELD		SCHOOL STREET	HOPEFIELD	858
HOUDCONSTANT, PORTERVILLE, PORTERVILLE		PORTERVILLE	PORTERVILLE	861
GOLF STREET, PARKDEN, GEORGE		GOLF STREET	PARKDEN	862
SKOOLSTREET, RUSTDENE, BEAUFORT WEST		SKOOLSTREET	RUSTDENE	864
RIDDER STREET, BLOMPARK, GANSBAAI		RIDDER STREET	BLOMPARK	867
CEDILE STREET, KWANONQABA, MOSSEL BAY		CEDILE STREET	KWANONQABA	868
HOLOMISA STREET, ILLINGELETHU, MALMESBURY		HOLOMISA STREET	ILLINGELETHU	869
C/O CHRIS HANI HS, CEKECA ROAD, KHAYELITSHA		CEKECA ROAD	KHAYELITSHA	872
CHURCH STREET, WORCESTER, WORCESTER		CHURCH STREET	WORCESTER	889
HLULA ROAD, SECTION 33, HARARE, KHAYALITSHA		HLULA ROAD	SECTION 33	891
THANDABANTU STREET, DU NOON, MILNERTON		THANDABANTU STREET	DU NOON	899
LAVIS DRIVE, LAVISTOWN, BISHOP LAVIS		LAVISTOWN	LAVISTOWN	907
OLD KOSIE DE WET BUILDING, BUITEKANT STREET, VILLIERSDORP		BUITEKANT STREET	VILLIERSDORP	908
FRAHNS LAAN, KALBASKRAAL, ABBOTSDALE		FRAHNS LAAN	KALBASKRAAL	933
C/O ISABEL AND BELHAR MAINS, KALKFONTEIN, KUILSRIVIER		KALKFONTEIN	KALKFONTEIN	934
HOTTOMSKLOOF PRIM, KAMANASSIE, OUDTSHOORN		KAMANASSIE	KAMANASSIE	935
MAKUPULA HIGH, MAKUPULA STREET, KAYAMANDI		MAKUPULA STREET	KAYAMANDI	936
KEEROM, PORTERVILLE, PORTERVILLE		PORTERVILLE	PORTERVILLE	940
KENSINGTON LIBRARY, C/O FATRETON AND 11TH AVENUE, KENSINGTON		C/O FACTRETON AND 11TH AVENUE	KENSINGTON	941
SINETHEMBA YOUTH CENTRE, KHAYELETHU, KNYSNA		KHAYELETHU	KHAYELETHU	948
KLAPMUTS PRIMARY, MERCHANT STREET, KLAPMUTS		MERCHANT STREET	KLAPMUTS	951
MANDELA STRAAT, KLAWER, VAN RHYNSDORP		MANDELA STRAAT	KLAWER	952
ADRIAANSRYLAAN, ASLA PARK, MOSSEL BAY		ADRIAANSRYLAAN	ASLA PARK	954
RECREATION STREET, BREDASDORP, BREDASDORP		RECREATION STREET	BREDASDORP	955
SUNRIDGE STREET, HORNLEE, KNYSNA		SUNRIDGE STREET	HORNLEE	959
SKOOLSTRAAT, KOEKENAAP, VREDENDAL		SKOOLSTRAAT	KOEKENAAP	961
BANHOEK ROAD, STELLENBOSCH, STELLENBOSCH		BANHOEK ROAD	STELLENBOSCH	962
KORINGBERG PRIMER, KORINGBERG, MOORREESBURG		KORINGBERG	KORINGBERG	964
SKURWEBERG SECONDARY SCHOOL, KOUE BOKKEVELD, OP-DIE-BERG		KOUE BOKKEVELD	KOUE BOKKEVELD	965
Koopmans Avenue, Scottsdene, KRAAIFONTEIN		Koopmans Avenue	Scottsdene	967
KRANSHOEK PS, MONUMENT STREET, KRANSHOEK		MONUMENT STREET	KRANSHOEK	971
AANDBLOMSTRAAT, P/A STEYNVILLE SEK, PIKETBERG		AANDBLOMSTRAAT	PIKETBERG	973
LUDWE NGAMLANA MQA MKI STREET, KUYASA, KHAYELITSHA		LUDWE NGAMLANA MQA MKI STREET	KUYASA	974
PHAKAMISANI PRIMARY, SISHUBA STREET, KWANOKUTHULA		SISHUBA STREET	KWANOKUTHULA	975
PW DE BRUIN PRIMARY, PIETERSEN STREET, LAMBERTSBAY		PIETERSEN STREET	LAMBERTSBAY	979
LATEGANSVLEI PRIMARY, LATEGANSVLEI, OUDTSHOORN		LATEGANSVLEI	LATEGANSVLEI	980
Le Jardine, PORTERVILLE		PORTERVILLE	PORTERVILLE	986
C/O LEIDEN AND JAN DIESEL AVEN,LEIDEN, DELFT		LEIDEN	LEIDEN	990
LENTEGEUR PUBLIC LIBRARY, MERRYDALE ROAD, MITCHELLS PLAIN		MERRYDALE ROAD	MITCHELLS PLAIN	991
DE LA BAT ROAD, WORCESTER, WORCESTER		DE LA BAT ROAD	WORCESTER	993
LUCKHOFF SEN. SEC, BLOEKOM AVENUE, IDAS VALLEY, STELLENBOSCH		BLOEKOM AVENUE	IDAS VALLEY	1000
SUIKERHOEK STRAAT, LUTZVILLE, VREDENDAL		SUIKERHOEK STRAAT	LUTZVILLE	1002
MEERLUST, LYNEDOCH		LYNEDOCH	LYNEDOCH	1003
THE HAGUE RECREATION CENTRE, MAIN ROAD, DELFT		MAIN ROAD	DELFT	1004
ROZENBURG STREET, MALMESBURY, MALMESBURY		ROZENBURG STREET	MALMESBURY	1006
DARLINGWEG, SCHOONSPRUIT, MALMESBURY		SCHOONSPRUIT	SCHOONSPRUIT	1007
C/O MARYLAND CENTRE, SUMMIT ROAD, HANOVER PARK		SUMMIT ROAD	HANOVER PARK	1014
MANDELA STREET, MASAKHANE, GANSBAAI		MANDELA STREET	MASAKHANE	1015
UMNQOPHISO PRIMARY, NONKQUBELA STREET, LWANDLE		NONKQUBELA STREET	LWANDLE	1016
RELIEF STREET, MURRAYSBURG		RELIEF STREET	MURRAYSBURG	1017
MASIYILE HIGH, C/O BONGA AND PAMA ROAD, KHAYELITHSA		C/O BONGA AND PAMA ROAD	KHAYELITHSA	1018
IMBONISELO PRIM, LINGELIHLE STREET, MBEKWENI, PAARL		LINGELIHLE STREET	MBEKWENI	1019
BANHOEK ROAD, STELLENBOSCH, STELLENBOSCH		BANHOEK ROAD	STELLENBOSCH	1021
LANGABUYA PRIMARY, MAFILA STREET, MBEKWENI		MAFILA STREET	MBEKWENI	1023
THUSONG BUILDING, PADDY STREET, ROBERTSON		PADDY STREET	ROBERTSON	1027
METHODISTE KERK, BRANDERSTRAAT, RUSTDENE, BEAUFORT-WES		BRANDERSTRAAT	RUSTDENE	1034
MAARMAN STRAAT, KWAMANDLENKOSI, BEAUFORT WEST		MAARMAN STRAAT	KWAMANDLENKOSI	1035
C/O TOKWANA AND NQUBELANI, EXTENSION 6, MFULENI		EXTENSION 6	EXTENSION 6	1036
MIDDELPLAAS, PORTERVILLE, PORTERVILLE		PORTERVILLE	PORTERVILLE	1039
IMBASA PRIMARY, C/O NEW EISLEBEN ROAD, OLD CROSSROADS		C/O NEW EISLEBEN ROAD	OLD CROSSROADS	1049
MKHANYISELI PRIM SCHOOL, TERMINUS ROAD, K.T.C, NYANGA		TERMINUS ROAD	K.T.C	1050
HOOF STRAAT, MOORREESBURG, MOORREESBURG		HOOF STRAAT	MOORREESBURG	1058
THE FARM, SAMANTHA ROADS, MITCHELLS PLAIN		SAMANTHA ROADS	MITCHELLS PLAIN	1059
MAYIXHALE STREET, KANONQABA, MOSSELBAAI		MAYIXHALE STREET	KANONQABA	1060
SAGOLODA STREET, BROWNS FARM, PHILLIP		SAGOLODA STREET	BROWNS FARM	1063
RECREATION STREET, BREDASDORP, BREDASDORP		RECREATION STREET	BREDASDORP	1076
P/A PAULUS JOUBERT, BEUKES STREET, PAARL		BEUKES STREET	PAARL	1085
GEELHOUT WEG, NEW HORIZON, PLETTENBERG BAY		NEW HORIZON	NEW HORIZON	1090
49 St George’s Mall, Corner Castle Street & St George’s Mall, Cape Town, 8000	Cnr	Castle Street & St George’s Mall	Cape Town	86
1023 Bank Avenue, Centurion, 0157	1023	Bank Avenue	Centurion	121
DJ Wood Avenue, Bellville Business Park, Corner Voortrekker Street & Mike Pienaar, Bellville, 7530 	DJ Wood Avenue	Corner Voortrekker Street & Mike Pienaar	Bellville	122
First Floor, Bellville Mall, Cnr. Bill Bezuidenhout & Voortrekker Road, Bellville, 7530	Cnr	Bill Bezuidenhout & Voortrekker Road	Bellville	136
40 Sir Lowry Road, Cape Town, 8000	40	Sir Lowry Road	Cape Town	156
5 Elson Road, Top of Birkdale Avenue, Woodstock, Cape Town, 7295	5	Elson Road	Top of Birkdale Avenue	181
1St Floor, Sunclare Building, 21 Dreyer Street, Claremont, 7708	21	Dreyer Street	Claremont	250
18 Lower Scott Road, Observatory, Cape Town, 8000	18	Lower Scott Road	Observatory	253
41 Techno Road, Techno Park, Stellenbosch, 7600 	41	Techno Road	Techno Park	277
Mupine: 307 Forest Drive Extension, Pinelands, 7504	307	Forest Drive Extension	Pinelands	328
4th Floor Manhattan Place, 130 Bree Street, Cape Town, 8001	130	Bree Street	Cape Town	453
52-62 Tarentaal Road, Bridgetown, Athlone, Cape Town, 7764  	52	Tarentaal Road	Bridgetown	584
McGregor House, 4 Victoria Road, Plumstead, 7801.	4	Victoria Road	Plumstead	593
Cape Town: 32 Kloof Street Gardens, Cape Town, 8001.	32	Kloof Street	Gardens	603
127 Cecil Road, Salt River, 7925.	127	Cecil Road	Salt River	650
12 Liesbeeck  Parkway, Mowbray, Cape Town, 8000.	12	Liesbeeck  Parkway	Mowbray	671
2, The Crescent, Durbanville, 7550	2	The Crescent	Durbanville	722
WPCC Sports Centre, Avenue de Mist, Rondebosch,7700		Avenue de Mist	Rondebosch	768
36 Beach Road, Muizenberg, 7950, Cape Town	36	Beach Road	Muizenberg	815
Helderberg College Road, Somerset West, 7130		Helderberg College Road	Somerset West	847
11 Adderley  Street, Cape Town, 8000	11	Adderley  Street	Cape Town	876
Varsity Place, Belmont Office Park, Belmont Road, Rondebosch, 7700		Belmont Road	Rondebosch	877
302 The Armoury, Buchanan Square, 160 Sir Lowry Road, Woodstock, Cape Town, 7925	160	Sir Lowry Road	Woodstock	886
Sable Square Outlet Shopping Village (Block B), 142 Democracy Way, Marconi Beam, Milnerton, 7435	142	Democracy Way	Marconi Beam	896
101 Aan de Gragt Building, 5 Plein Street, Stellenbosch, 8000	5	Plein Street	Stellenbosch	898
				921
Tijgerpark 1, Willie van Schoor Drive, Bellville, 7530	1	Willie van Schoor Drive	Bellville	1030
2nd Floor Sunclare, Corner Protea and Dreyer Roads, Claremont, Cape Town, 7708	Cnr	Protea and Dreyer Roads	Claremont	1044
				922
Rondebosch, Cape Town 7700			Rondebosch	338
Stellenbosch Central, Stellenbosch 7600		Stellenbosch Central	Stellenbosch 7600	339
Robert Sobukwe Rd, Bellville, Cape Town 7535		Robert Sobukwe Rd	Bellville	340
Symphony Way, Cape Town 7530		Symphony Way	Bellville	581
Rothschille Boulevard Panorama 7500		Rothschild Boulevard	Panorama	16
Proton Road Belhar7493		Proton Street	Belhar	17
Connaught Road Parow Valley 7503		Connaught Road,	PAROW VALLEY	18
Sackson Street Bellville South 7530		Sackson Street	Bellville South	19
80 Voortrekker Road Bellville	80	Voortrekker Rd	BELLVILLE	20
Vanguard Drive Goodwood 7460		Vanguard Drive	Goodwood	23
Community Development Centre (Kwa-Nokuthula) N2 Opposite Christian School Plettenberg 6600		N2 Kwanonkuthula	Plettenberg Bay	257
C/o Essenhout & Kreupelhout Streets Heiderant MOSSEL BAY 6511	Cnr & Kreupelhout Streets	Essenhout & Heiderand	Mossel Bay	258
Varkevisser Street, Riversdale, 6670 		Varkevisser Street	Riversdale	260
46 Hibernia Street George 6529	46	Hibernia Street	George	261
Cnr De Vries & Van Schalkwyk Streets Beaufort West 6970	Cnr	Van Schalkwyk & De Vries Streets	Rustdene	262
Adderley Street Oudtshoorn 6620		Adderley Street	Oudtshoorn	263
Clicks Building 2nd Floor 48 Voortrekker Road Malmesbury 7300	48	Voortrekker Road	Malmesbury	366
1 Akademie Street, Louwville, Vredenburg	1	Akademie Street	Louwville	367
Hoërskool Road, Vredendal		Hoërskool Road	Vredendal	369
101 Kerk Street Citrusdal 7340	101	Kerk Street	Citrusdal	370
C/O Charl Uys Drive and Neil Hare Street, Atlantis Industrial Area	Cnr	Charl Uys Drive & Neil Hare Street	Atlantis Industrial Area	371
4 St Thomas Street Malmesbury 7300	4	St. Thomas Street	Malmesbury	372
71 Aerodrome Road Strand 7139	71	Aerodrome Road	Strand	531
Rainier Street WORCESTER 6850		Rainier Straat	Worcester	532
Plein Street Paarl		Plein Street	Paarl	533
Van Riebeeck Street Stellenbosch 7600		Van Riebeeck Street	Stellenbosch	534
College Street Caledon 7230	37	Koalisie Straat	Caledon	535
Cnr. NY1 & Ngambu Street Guguletu 7750false,false,1	Cnr	Steve Biko Drive & Ngambu Street	Guguletu	619
Kromboom Road Crawford 7780		Kromboom Road	Crawford	620
Jan Smuts Drive Pinelands 7405		Jan Smuts Drive	Pinelands	621
Cnr Longmarket and Buitenkant Street Cape Town 8001	Cnr	Longmarket & Buitenkant Street	Cape Town	623
Breda Street Gardens Cape Town 8001	18	Breda Street	Gardens	624
Cnr of Poplar & Cedar Road Thornton 7460	Cnr	Cedar & Poplar Road	Thornton	625
Broad Road Wynberg 7800	31	Broad Road	Wynberg	626
Cnr of Protea & Eland Street Athlone 7764	Cnr	Protea & Eland Street	Athlone	627
Corner 7th Avenue & Kommetjie Road, Fish Hoek 	Cnr	7th Avenue & Kommetjie Road	Fish Hoek 	775
Westlake Drive Westlake		Westlake Drive	Westlake 	776
Mew Way Khayelitsha		Mew Way	Khayelitsha	778
Ground Floor Cinnabar Building Main Rd Muizenberg		York Rd	Muizenberg 	779
C/o of Portlands Primary School, Kunene Rd Mitchells Plain	Cnr	Spine & Merrydale Roads	Mitchell's Plain	780
				923
"64 St George's Mall
Cape Town
8001"	64	St George's Mall	Cape Town	674
49 St George's Mall, Ground Floor, Cologne House Building, Cape Town, 8000	49	St George's Mall	Cape Town	894
				924
"2nd Floor Sunclare Building 
Cnr Protea & Dreyer Rd s Claremnt 
Cape Town
7708"	Cnr	Protea Rd & Dreyer Rd	Claremont	1045
4 DELFT STREETMALIBU VILLAGEBLUE DOWNS 7100	4	 DELFT STREET	MALIBU VILLAGEBLUE DOWNS 	28
Muller Bldg, Gabriel Rd, Plumstead, Cape Town, 7800		Muller Bldg	 Gabriel Rd	51
	8	MURRAY ST	GOODWOOD	140
UNIT 10, ALEXWAY COMPLEX, N0 5 ROMAN CLOSE, HERMANUS. SOUTH AFRICA	5	Roman Close	Hermanus	152
No 17 8th Street, Cnr 11th Avenue and 8th Street, Houghton	17	 8th Street	 Cnr 11th Avenue and 8th Street	205
244B Voortrekker Road, Parow 7500		 Voortrekker Road	 Parow 	243
BOOMPIES STREET PAROW EAST CAPE TOWN 7500		BOOMPIES STREET 	PAROW EAST 	265
85 George Blake Road Plankenbrug Stellenbosch	85	 George Blake Road  	Plankenbrug Stellenbosch	274
KABACH BUILDING, 119 MAIN RD, PLUMSTEAD, WYNBERG, Western Cape, South Africa	119	 MAIN RD	 Strand	294
Greenwich Grove – Station Road 7700 Rondebosch		Greenwich Grove – Station Road 	Rondebosch	302
Seaboard House 235 Blaauwberg Road TableView, 7441 	235	Seaboard House Blaauwberg Road 	TableView	335
Head Office 3 High Street, 3rd Floor, Rosenpark, Bellville, 7530	3	High Street  3rd Floor	 Rosenpark	349
ADT House, 5 Louwtjie Rothman Avenue, N1 City, Goodwood 7463 	5	Louwtjie Rothman Street	N1 City	460
4 Queens Park Avenue, Salt River, Cape Town 7925	4	 Queens Park Avenue	 Salt River	474
13 Prema Business Park, Engine Road, Montague Gardens, Cape Town, 7442	13	 Engine Road	Montague Gardens	483
65 Waterkant Street Cape Town City Centre, Cape Town, 8001‎	65	 Waterkant Street 	 Cape Town City Centre	563
2 KINDROGGAN FL, Cape Town, Western Cape 7405	2	 KINDROGGAN FL	 Cape Town	598
2 KINDROGGAN FL, Cape Town, Western Cape 7405	2	 KINDROGGAN FL	 Cape Town	599
112 Long street 3rd floor Twinell House	112	Long street  	 Cape Town	604
	54	suikerbekkie east st	joostenbergvlakte, Kraaifontein	645
6 Huguenot St, Bellville, 7530	6	 Huguenot St	 Bellville	781
Unit 137 Platinum Junction School Street Milnerton 7441		 Platinum Junction School Street 	Milnerton	785
9 Mullers Bldg, Cuff St, Mossel Bay, Mossel Bay, Western Cape 	9	Cuff St		887
				925
Municipal Sports Grounds Sarel van Deventer Street Kraaifontein, Western Cape 7572, South Africa		 Sarel van Deventer Street 	Kraaifontein  	969
Municipal Sports Grounds Sarel van Deventer Street Kraaifontein, Western Cape 7572, South Africa		 Sarel van Deventer Street 	Kraaifontein  	970
A” 368 Albert Road Salt River Cape Town Western Cape 7900	368	 Albert Road 	Salt River 	1010
5 Lincoln Street, Bellville, Western Cape, South Africa.	5	 Lincoln Street	 Bellville	1038
12 Bosbok Road, Aurora Durbanville Cape Town 7550	12	Bosbok Road	 Aurora Durbanville Cape Town 7550	10
Block D, Belvedere Office Park, Bella Rosa Street Durbanville Cape Town 7460		Bella Rosa Street 	Durbanville	50
230 Main Road Paarl 7620	230	Main Road 	Paarl	292
40 Oxford Street Durbanville Cape Town	40	Oxford Street 	Durbanville	318
Unit 4 Station Square, 38 Station Road Montague Gardens Cape Town 7441	38	Station Road	Montague Gardens 	321
Heuningklip Street Vredenburg Cape Town 7380		Heuningklip Street Vredenburg Cape Town 7380		374
49 Roodebloem Road, Woodstock Cape Town 8001	49	 Roodebloem Road	 Woodstock Cape Town 8001	683
Unit D7, Collingwood Building, Black River Park, Observatory Cape Town 7925	Black River Park		Observatory	725
1st Floor Leadership House, 40 Shortmarket Street, Cape Town, 8000 	40	1st Floor Leadership House	Shortmarket Street	752
Foyer A, 101, Sovereign Quay, 34 Somerset Road Green Point Cape Town 8001	34	Somerset Road	Green Point	885
5th Floor, 154 Main Road Sea Point Cape Town	154	Main Road	Sea Point	895
				926
Unit 201, 16 on Victoria Avenue Hout Bay Cape Town 7806	16	Victoria Avenue	 Hout Bay	989
9 Fortesque Road Crawford Cape Town 7780	9	Fortesque Road Crawford Cape Town 7780		1022
6 Caernarvon Crescent Parklands Cape Town 7441	6	 Caernarvon Crescent Parklands Cape Town 7441		1052
Operational Process Improvements ( OPI)				48
Perishable Products Export Control Board (PPECB) 45 SILVERBOOM AVENUE PANORAMA Cape Town Cape Town Metro Urban 7506	45	SILVERBOOM AVENUE	PANORAMA	93
Phezukomkhono Training Services Prince Vincent Building Room 12 c/o Baron Van Reede & Church Street Oudtshoorn Urban 6620	Cnr	Baron Van Reede & Church Street	 Oudtshoorn Urban	100
Philani Training and Development Solutions NPC AgriSeta House 529 Belvedere Street 	529	Belvedere Street		102
Protea Agricultural Training Centre 7561				141
Reach Out Vegetable Cultivation & Training Centre Mossie Street 51 Peerless Park North Cape Town Cape Town Metro Urban 7570	51	Mossie Street 51 Peerless Park North Cape Town Cape Town	Peerless Park North	154
Recall Skills College 123 Mitchell Street George George Urban 6530	123	Mitchell Street	George	155
SA Agri Academy Muldersvlei Rd Elsenburg		Muldersvlei Rd	Elsenburg	183
Sandra Kruger & Associates Pty ( Ltd) 31 Pine Street Pniel Stellenbosch Urban 7612	31	Pine Street	Pniel	197
Sikhula Agri Training 2 Hurst Place Somerset West	2	Hurst Place	Somerset West	224
Sound Interactions CC 2 St Geran Village Radar Close Cape Town Cape Town Metro Urban 7441		Radar Close		248
South Cape College 125 Mitchell Street GEORGE George Urban 6530	125	Mitchell Street  6530	GEORGE	255
Two A Day Group (Pty) Ltd 1 Villiersdorp Rd Grabouw Overstrand Urban 7160	1	 Villiersdorp Rd	Overstrand	331
Vineyard Academy Manor House, Nietvoorbij Farm R44 Arterial Road, Stellenbosch Urban 7599		R44 Arterial Road	 Stellenbosch	352
Westco Agri Training Oktagebou, Waterkantskraai Vredendal			 Waterkantskraai	377
Boland Agri Training & Community Development Centre 6 Kiepersol Street Tulbagh Tulbagh Witzenberg Urban 6820	6	Kiepersol Street	Witzenberg	524
Boland College				527
British American Tobacco South Africa Pty Ltd 25 Du Toit Street Stellenbosch Stellenbosch Urban 8000	25	 Du Toit Street	Stellenbosch	557
CAPE GLOBAL CONSTRUCTION & ENGINEERING TRAINING CENTRE (Vredenburg)(TP			Vredenburg	577
Cape Institute for Agricultural Training: Elsenbu0rg Muldersvlei weg Elsenburg		Muldersvlei weg	Elsenburg	580
College of Sustainable Agriculture 83 Helderberg College Road The Vineyard Somerset West Cape Town Metro Urban 7129	83	 Helderberg College Road	 The Vineyard	631
Colors Packhouse (Pty) Ltd Distillery Street Dal Josafat Paarl 7623		Distillery Street	Dal Josafat	634
Damelin Namaqualand (Springbok) 0000			Springbok	676
Ekhozi Rural Development Services NO 12 Daalder Close Strand Cape Town Metro Urban 7443	12	Daalder Close	Strand	741
Elgin Community College 09 Appletiser Road , Elgin Grabouw Theewaterskloof Urban 7160		09 Appletiser Road	 Elgin  Theewaterskloof	747
Green Futures C/o Grootbos Nature Reserve Off R43 Between Stanford & Gansbaai Overstrand Urban 7220	 Off R43	Between Stanford	Gansbaai	830
Honeybee Foundation and Products 25 Disa Avenue Fish Hoek Cape Town Metro Urban	25	 Disa Avenue	Fish Hoek	856
				927
Kaap Agri Training Centre 65 Voortrekker Malmesbury 	65	 Voortrekker	Malmesbury	932
KayDee Project Management Cc 3 Palmiet River Farm Main Road Grabouw 7160	3  Palmiet River Farm	  Main Road	Grabouw	937
Koue Bokkeveld Training Centre 63 Bergsig street Op die Berg Koue Bokkeveld Breede River Rural 6836	63	 Bergsig street	Op die Berg	966
Kromco (Pty) Limited Patryslaagte Grabouw Overstrand Urban 7160			 Patryslaagte	972
Lateral Training Solutions (PTY) LTD Groenhoek Vredendal Western Cape 8160			Groenhoek	981
Lavender Moon Trading 27 cc 15 Roseland Road Rondebosch Cape Town Metro Urban	15	 Roseland Road	Rondebosch	985
National Institute For The Deaf 941 De La Bat Road,30 Worcester Breede Valley Urban 6849	30	 De La Bat Road	Worcester	1081
National Training Institute (NTI) 32 Kommissaris Street Welgemoed Cape Town Cape Town Metro Urban 7535	32	 Kommissaris Street	Welgemoed	1084
19 Keurboom Crescent Plattekloof  7500	19	Keurboom Crescent 	Plattekloof 	664
Dryer and Protea Roads Claremont Cape Town Metro Urban 7735		 Dryer and Protea Roads  	Claremont	1046
		Sackson Street	Mimosa	14
	33	York Street	George	29
	95	 York Street	George	30
	95	 York Street	George	32
	95	 York Street	George	33
	12	 Liesbeek Avenue Off Liesbeek Parkway	Mowbray	312
	12	 Liesbeek Avenue Off Liesbeek Parkway	Mowbray	313
	72	Duminy Street 	Vredelust Bellville	314
	5	 Beckham Street	Gardens	378
	1	 Riverine Road	Parklands	461
	1	 Riverine Road	Parklands	463
	1	 Riverine Road	Parklands	464
	4	 Beyers Road	Woodstock	475
	37	Barrack Street	East City, Cape Town	575
	3	 Saint Patrick Avenue	Seawinds	607
		Ave de Mist,	Rondebosch	765
		Ave de Mist,	Rondebosch	766
		Ave de Mist,	Rondebosch	767
	10	Dale Road	Mabille Park	807
	10	Dale Road	Mabille Park	808
		Somerset Road	 Green Point Kaapstad	906
				928
		 De keur Street	Durbanville	996
		 De keur Street	Durbanville	997
Kotze Street Moorreesburg, 7310		Kotze Street 	Moorreesburg	286
Sacks Cir, Van Der Bijl St, Sacks Circle, 7530 		Sacks Cir  Van Der Bijl St		320
5 Park Street, Cape Town, Western Cape 7550   	5	 Park Street	 Cape Town	456
				929
151 Frans Conradie Drive PAROW  7500	151	 Frans Conradie Drive 	PAROW  	96
				930
Parrow Campus Connaught Road Parow		 Connaught Road 	Parow	22
2 Silverdale Pinelands 7450	2	 Silverdale 	Pinelands	34
SUITE 101 BUILDING 20 KOTZEE ROAD WAVERLEY BUSINESS PARK MOWBRAY 7700		KOTZEE ROAD 	WAVERLEY BUSINESS PARK MOWBRAY 	41
Suite 101 Bldg 20 Waverley Business Park Kotzee Road Mowbray 7700		KOTZEE ROAD 	WAVERLEY BUSINESS PARK MOWBRAY 	43
50 Long Street Cape Town 8000	50	 Long Street	 Cape Town	46
Ladywood Drive  Ladywood Plettenburg Bay 6600		Ladywood Drive 	 Ladywood Plettenburg Bay 	47
19A Oewerpark Rokewood Avenue Die Boord Stellenbosch 7600		 Oewerpark Rokewood Avenue  	Die Boord Stellenbosch	61
4 Hawston Road Milnerton 7441	4	 Hawston Road 	Milnerton 	82
Glen Roy Road Pinelands Cape Town 7405		Glen Roy Road	 Pinelands 	90
8 Colyn Road Kalk Bay 7975	8	 Colyn Road 	Kalk Bay 	95
Hub Centre 124 Visser Street Kraaifontein 7550	124	 Visser Street 	Kraaifontein 	139
Nr 44 Lakewood Village Theron Street Fernkloof Hermanus 2092	44	 Theron Street 	 Lakewood Village Fernkloof Hermanus 	143
Ground Floor 23 Belmont Road Belmont Square Rondebosch 7700	23	 Belmont Road Belmont Square 	Rondebosch 	145
18 CAPITAL DRIVE  TEMBANI KHAYELITSHA 7791	18	 CAPITAL DRIVE  	TEMBANI KHAYELITSHA	148
6 DANA STREET BRACKENFELL 7560	6	 DANA STREET 	BRACKENFELL	172
20 Emerald Crescent Fish Hoek 7975	20	 Emerald Crescent	 Fish Hoek 	177
01 Clarendon Street Parow Valley Parow Valley 7500	1	 Clarendon Street 	Parow Valley Parow 	226
3 Swartvlei Street Paarl 7646	3	Swartvlei Street	 Paarl 	233
8 Sherwood Course Corner of Dreyersdal and Children Way Bergvliet 7945 	8	 Corner of Dreyersdal and Children Way 	Bergvliet 	236
13 Briza Road Bloubergrant 7441	13	 Briza Road 	Bloubergrant 	239
Unit 201 B, Building 20 Waverley Business Park Wycroft Road Mowbray 7700		Wycroft Road	 Mowbray	241
22 Cavendish Road Claremont Cape Town 7708	22	 Cavendish Road 	Claremont 	244
Collingwood Place 11 Drake Street Observatory 7925	11	  Drake Street 	Observatory 	251
	125	Mitchell Street	George	254
Boundary Road Newlands 7700		Boundary Road  	Newlands	268
2 Gladstone Road Boston Bellville 7530	2	 Gladstone Road 	Boston Bellville 	272
42 Bloumhof Street Oakdale Belliville 7535	42	 Bloumhof Street	 Oakdale Belliville 	284
Lynedoch Development R310 Lynedoch Stellenbosch 7603		Lynedoch Road	 Lynedoch Stellenbosch 	285
112 Helderberg College Road Die Wingerd Somerset West 7130	112	 Helderberg College Road 	 Die Wingerd Somerset West	290
7 DALEGARTH ROAD  PLUMSTEAD WESTERN CAPE 7800	7	 DALEGARTH ROAD  	PLUMSTEAD 	296
17 Garland Dale Crescent  Garland Dale Athlone Cape Town 7764	17	 Garland Dale Crescent    	Garlandale Athlone	298
298 Captain W A Duthie Avenue Lake Brenton 6571	298	 Captain W A Duthie Avenue	 Lake Brenton Knysna	299
39 Rosmead Avenue  Wynberg Cape Town 7800	39	 Rosmead Avenue  	Wynberg	300
5 Pineway Pinelands Cape Town 7405	5	 Pineway 	Pinelands  	308
19 Andries Pretorius Street Somerset West 7130	19	 Andries Pretorius Street	 Somerset West 	310
21 Fourth Street  George 6530	21	 Fourth Street  	George	319
3 de Kock Avenue Constantia Cape Town7806	3	 de Kock Avenue 	Constantia 	327
Clicks Bldg 48 Voortrekker Road Malmesbury 7299	48	  Voortrekker Road  	Malmesbury	365
5A Avenue Normadie Fresnaye Cape Town 8005		 Avenue Normadie 	Fresnaye  	394
45 Queen's Park Avenue Woodstock Cape Town 7945	45	 Queen's Park Avenue 	Woodstock 	395
19 Loop Street   Barr Streek Building Cape Town 8001		19 Loop Street  	Cape Town	458
18 Olive Schreiner Str, Parow North 7500	18	 Olive Schreiner Str	 Parow North 7500	459
Ground Floor Liesbeek House River Park River Lane Mowbray 7945		  River Lane 	River Park Mowbray 	465
Skabort Lane 48 Eversdal 7536	48	Skabort Lane	Eversdal 	495
4 Firfield Road Plumstead Cape Town 7800	4	 Firfield Road 	Plumstead 	502
Glen Eagles Greenways Strand 7140		Glen Eagles 	Greenways Strand 	519
85 Birdstreet Stellenbosch 7600	85	 Birdstreet	Stellenbosc	529
Ground Floor Twin Oaks Main Street Somerset 7130		  Main Street	 Somerset 	540
3rd Floor Matador Centre 62 Strand Street Cape Town  8001  	62	Strand Street 	Cape Town 	541
1st floor Regkaam Building Kort Street Bellville 7530		  Kort Street	 Bellville	542
1st Floor Market Mall 84 Market Street George 6529	84	 Market Street 	George 	543
5 Scott Road Hout Bay Cape Town 7806	5	 Scott Road 	Hout Bay 	554
5 Mountainview Crescent Durbell Durbanville 7550	5	 Mountainview Crescent 	Durbell Durbanville 	566
Unit D11 Westlake Square Westlake 7945		 Westlake Square 	Westlake 	568
9 Rosendale Street Bellville 7538  	9	 Rosendale Street 	Bellville 	573
Keizersgracht Street CAPE TOWN WESTERN CAPE 8001  		Corner of Keizersgracht and Tennant Street	Zonnebloem	582
4 Victoria Road Plumstead Cape Town 7800	4	 Victoria Road 	Plumstead 	589
2 Dixton Road Observatory Cape Town 7025	2	 Dixton Road 	Observatory	592
20 Rosmead Avenue Claremont 7708 	20	Rosmead Avenue	 Claremont 	594
		Connaught Road	PAROW VALLEY	595
18 Breda Street Gardens Cape Town	18	 Breda Street 	Gardens 	615
32 Stowe Cresent Silvertree Estate Tokai 7945	32	Stowe Cresent	 Silvertree Estate Tokai	641
2nd Floor Newport House Cnr. Ebenezer & Prestwich Rd Greenpoint 8001		 Cnr. Ebenezer & Prestwich Rd 	Greenpoint	642
47 Bain Street Wellington 7655	47	 Bain Street 	 Wellington	648
39 John X Merriman Street Cape Town 7530  	39	 John X Merriman Street  	Cape Town	686
6 CONSTANTIA MEWS CONSTANTIA ROAD DURBANVILLE 7550  	6	  CONSTANTIA ROAD 	DURBANVILLE 	715
UNIT D7 COLLINGWOOD BUILDING BLACKRIVER PARK FIR STREET OBSERVATORY 7925		FIR STREET 	BLACKRIVER  PARK OBSERVATORY 	724
South Arm Road Duncan Dock Cape Town Harbour Cape Town 8000		South Arm Road	Cape Town Harbour 	726
69 Main Road Mowbray 7700  	69	 Main Road	 Mowbray	732
19 Flamingo Crescent Lansdowne 7780	19	 Flamingo Crescent Lansdowne 7780		733
C/O GRASS ROOTS TRUST SUITE 35 A KLIP FONTEIN ROAD ATHLONE 7700		 KLIP FONTEIN ROAD	 ATHLONE 	736
Sithandathu Avenue Medical Centre Nyanga 7755  		Sithandathu Avenue 	Nyanga 	743
9 Appletiser Road Grabouw 7160	9	 Appletiser Road 	Grabouw 	746
7 Rael Street Tamboeis Kloof Cape Town	7	Rael Street  	Tamboeis Kloof	753
The Bird Hide 29 Green Close Parow 7500  	29	 Green Close 	Parow 	764
17 NOOITGEDACHT DRIVE HOUTBAY 7872	17	 NOOITGEDACHT DRIVE	 HOUTBAY 	769
45 Tokai Road Cape Town 7945	45	 Tokai Road	 Cape Town 	783
No.1 Tiny Naude Street Brackenfel 7560 	1	 Tiny Naude Street 	Brackenfell 	784
340 Voortrekker Road Parow Cape Town 7500	340	 Voortrekker Road 	Parow 	796
Springbok Street Kew Town Athlone		Springbok Street  	Kew Town Athlone	797
47 REITZ STREET SOMERSET WEST 7130 	47	 REITZ STREET 	SOMERSET WEST 	801
34 the Village Diemersfontein Wine and Country Estate Wellington 7655	34	the Village 	Diemersfontein  Wine and Country Estate Wellington 	803
Global House 3 Pearce Street Berea East London 5241		Global House 3 Pearce Street Berea East London 5241		817
335a Klipfontein Road Silvertown Athlone 7764		 Klipfontein Road 	Silvertown Athlone 	828
19 Forrest Walk Forrest Lane Sir Lowry's Pass 7133  	19	Forrest Walk Forrest Lane 	Sir Lowry's Pass 	831
139 1 ST AVENUE KENILWORTH CAPE TOWN 7708	139	 1 ST AVENUE 	KENILWORTH 	846
8A Leonard Giles Street Rooirivierrif George 6530		 Leonard Giles Street 	Rooirivierrif George 	865
1st Floor, House Faure 10 Brodie Road Wynberg Mews 7800	10	Brodie Road	Wynberg	873
Office 2, 1st Floor 39 Second Avenue Harfield Village 7708	39	Second Avenue	  Harfield Village 7708	884
9 Upper Holy Street Newlands Cape Town 7700  	9	 Upper Holy Street   	Newlands	888
130 STRAND STREET CAPE TOWN 8001  	130	 STRAND STREET	 CAPE TOWN 	892
Diaz Office Park Office 21 & 22 Beach Boulevard West Mossel Bay 6506 		Beach Boulevard West	Mossel Bay	904
47 Princess Margaret Road Ruyterwacht 7460 	47	 Princess Margaret Road 	Ruyterwacht 	905
44 St Saviour Street Oudtshoorn 6625	44	 St Saviour Street  	Oudtshoorn	953
7 Rust-en-Vrede Business Park 17 Oxford Street Durbanville Cape Town 7550	17	 Oxford Street 	 Durbanville 	987
8 Sherwood Court Dreyersdal Road Bergvliet 7945	8	 Dreyersdal Road	 Bergvliet 	988
1 Church Street Okiep 8270	1	 Church Street 	Okiep	1005
12 Bouquet Street Claremont Cape Town 8001	12	 Bouquet Street 	Claremont	1012
Cape Town Teachers Centre Molteno Road Claremont 7736		Molteno Road	 Claremont 	1013
1 ALMYR COURT  HUGON ROAD CLAREMONT 7735	1	HUGON ROAD	 CLAREMONT 	1020
SUITE 208 RHEEDE STREET GARDENS 8001		RHEEDE STREET 	GARDENS	1032
275 Victoria Road Salt River 7925	275	 Victoria Road	 Salt River 	1047
27 Strubens Road Mowbray  Cape town	27	 Strubens Road	 Mowbray  	1051
8 Parkchester Avenue Pinelands Cape Town 7450	8	 Parkchester Avenue	 Pinelands 	1062
30 Nelson Drive Simons Town 7995	30	 Nelson Drive	 Simons Town	1082
68 Bonaparte Avenue Klein Parys Paarl 7646	68	 Bonaparte Avenue 	Klein Parys 	1087
Graduate School of Business University of Cape Town Breakwater Campus 8002		Breakwater Campus	 University of Cape Town 	1091
80 Voortrekker Road Bellville South 7530	80	 Voortrekker Road 	Bellville South	21
Unit 8 - Pro Dev Park Langenegger Street Gants Centre Strand 7140		Langenegger Street  	Pro Dev Park Strand	132
Courtney & Joubert Streets	125	Mitchell Street	George 	256
66 Main Road 1st Floor Office 4 Knysna 6570 	66	 Main Road 	  Knysna 	303
Ntaka Street Thembalethu George 6529		Ntaka Street 	Thembalethu George 	508
Unit H; Maitland Business Park Voortrekker Road Maitland 8000		Voortrekker Road 	 Maitland	601
Pinelands Campus Jan Smuts Drive Pinelands 8000		 Jan Smuts Drive 	 Pinelands 	616
Cape Peninsula University Symphony Way Bellville  7535		 Symphony Way   	Bellville	639
Eskom Ankerlig Power Station Atlantis Industrial Tygervalley 7536		 	Atlantis Industrial Tygervalley	754
15 Pasita Street Rosenpark Bellville 7536	15	 Pasita Street 	 Rosenpark Bellville	755
15 Pasita Street Rosenpark Bellville 7536	15	 Pasita Street 	 Rosenpark Bellville	757
15 Pasita Street Rosenpark Bellville 7536	15	 Pasita Street 	 Rosenpark Bellville	758
R27 West Coast Road Melkbosstrand 7440		 West Coast Road Melkbosstrand 	Melkbosstrand 	759
Off Westcoast Road Melkbosstrand  Cape Town 7440		Off Westcoast Road	Melkbosstrand 	760
R27 West Coast Road Melkbosstrand		 West Coast Road 	Melkbosstrand	761
False Bay College - Westlake Campus Westlake Business Park Westlake Drive Tokai 7945		Westlake Drive	  Westlake Business Park Tokai 	773
19 Kent Street Salt River Cape Town 7925	19	 Kent Street	 Salt River 	882
				931
959	464	1030	1024	
